{"type":"FeatureCollection","features":[{"type":"Feature","geometry":{"type":"Point","coordinates":[55.26586,-21.02369]},"properties":{"n":"Mairie Annexe de Plateau Caillou"}},{"type":"Feature","geometry":{"type":"Point","coordinates":[55.29508,-21.10572]},"properties":{"n":"Mairie de Trois Bassins"}},{"type":"Feature","geometry":{"type":"Point","coordinates":[55.30842,-21.21708]},"properties":{"n":"Mairie annexe de Piton"}},{"type":"Feature","geometry":{"type":"Point","coordinates":[55.471,-21.13521]},"properties":{"n":"Mairie de Cilaos"}},{"type":"Feature","geometry":{"type":"Point","coordinates":[55.33523,-21.2722]},"properties":{"n":"Mairie Annexe de l'Étang-Salé"}},{"type":"Feature","geometry":{"type":"Point","coordinates":[55.50395,-21.26102]},"properties":{"n":"Mairie annexe de 3 Mares"}},{"type":"Feature","geometry":{"type":"Point","coordinates":[55.33336,-21.24177]},"properties":{"n":"Mairie des Avirons"}},{"type":"Feature","geometry":{"type":"Point","coordinates":[55.43776,-21.14825]},"properties":{"n":"Mairie Annexe Îlet à Cordes"}},{"type":"Feature","geometry":{"type":"Point","coordinates":[55.48949,-21.14207]},"properties":{"n":"Mairie Annexe de Bras Sec"}},{"type":"Feature","geometry":{"type":"Point","coordinates":[55.56602,-21.35581]},"properties":{"n":"Mairie de Petite-Île"}},{"type":"Feature","geometry":{"type":"Point","coordinates":[55.40372,-21.20873]},"properties":{"n":"Mairie annexe"}},{"type":"Feature","geometry":{"type":"Point","coordinates":[55.26958,-21.08211]},"properties":{"n":"Mairie annexe de La Saline"}},{"type":"Feature","geometry":{"type":"Point","coordinates":[55.53738,-21.31109]},"properties":{"n":"Mairie annexe de Bérive"}},{"type":"Feature","geometry":{"type":"Point","coordinates":[55.43482,-20.92261]},"properties":{"n":"Mairie annexe du Brûlé"}},{"type":"Feature","geometry":{"type":"Point","coordinates":[55.49399,-21.30285]},"properties":{"n":"Mairie annexe Ligne des Bambous"}},{"type":"Feature","geometry":{"type":"Point","coordinates":[55.26967,-21.00968]},"properties":{"n":"Mairie de Saint-Paul"}},{"type":"Feature","geometry":{"type":"Point","coordinates":[55.47919,-20.89312]},"properties":{"n":"Mairie annexe de Saint Clotilde"}},{"type":"Feature","geometry":{"type":"Point","coordinates":[55.45342,-20.87924]},"properties":{"n":"mairie annexe de Saint Denis"}},{"type":"Feature","geometry":{"type":"Point","coordinates":[55.28399,-21.04882]},"properties":{"n":"Mairie annexe du Bernica"}},{"type":"Feature","geometry":{"type":"Point","coordinates":[55.51189,-21.02854]},"properties":{"n":"Mairie annexe de Mare à Vieille Place"}},{"type":"Feature","geometry":{"type":"Point","coordinates":[55.49473,-21.01958]},"properties":{"n":"Mairie annexe de Mare à Martin"}},{"type":"Feature","geometry":{"type":"Point","coordinates":[55.47618,-21.02978]},"properties":{"n":"Mairie annexe de Grand Ilet"}},{"type":"Feature","geometry":{"type":"Point","coordinates":[55.52129,-21.06476]},"properties":{"n":"Mairie Annexe d'Hellbourg"}},{"type":"Feature","geometry":{"type":"Point","coordinates":[55.6597,-20.94464]},"properties":{"n":"Mairie Annexe Fayard"}},{"type":"Feature","geometry":{"type":"Point","coordinates":[55.45348,-21.29734]},"properties":{"n":"Mairie annexe de Bois d'Olive"}},{"type":"Feature","geometry":{"type":"Point","coordinates":[55.52462,-21.33076]},"properties":{"n":"Mairie annexe de Mont-Vert les Bas"}},{"type":"Feature","geometry":{"type":"Point","coordinates":[55.47471,-21.31294]},"properties":{"n":"Mairie annexe Ligne Paradis"}},{"type":"Feature","geometry":{"type":"Point","coordinates":[55.49333,-20.91994]},"properties":{"n":"Mairie annexe de la Bretagne"}},{"type":"Feature","geometry":{"type":"Point","coordinates":[55.5076,-20.91529]},"properties":{"n":"Mairie annexe de Domenjod"}},{"type":"Feature","geometry":{"type":"Point","coordinates":[55.54928,-20.89691]},"properties":{"n":"Mairie de Sainte-Marie"}},{"type":"Feature","geometry":{"type":"Point","coordinates":[55.32823,-20.99807]},"properties":{"n":"Mairie Annexe"}},{"type":"Feature","geometry":{"type":"Point","coordinates":[55.29495,-20.94519]},"properties":{"n":"Mairie Annexe"}},{"type":"Feature","geometry":{"type":"Point","coordinates":[55.31933,-20.96087]},"properties":{"n":"Mairie Annexe (Salle de Boxe et d'Exposition)"}},{"type":"Feature","geometry":{"type":"Point","coordinates":[55.52131,-20.92583]},"properties":{"n":"Mairie Annexe de Grande Montée"}},{"type":"Feature","geometry":{"type":"Point","coordinates":[55.47913,-21.32911]},"properties":{"n":"Mairie annexe de Basse-Terre"}},{"type":"Feature","geometry":{"type":"Point","coordinates":[55.45738,-20.89305]},"properties":{"n":"Mairie annexe Providence"}},{"type":"Feature","geometry":{"type":"Point","coordinates":[55.47775,-20.91646]},"properties":{"n":"Mairie annexe du Bois de Nèfles"}},{"type":"Feature","geometry":{"type":"Point","coordinates":[55.65026,-20.96034]},"properties":{"n":"Mairie de Saint-André"}},{"type":"Feature","geometry":{"type":"Point","coordinates":[55.50987,-20.91532]},"properties":{"n":"Mairie annexe de la Rivière des Pluies"}},{"type":"Feature","geometry":{"type":"Point","coordinates":[55.46455,-20.8876]},"properties":{"n":"Centre Municipal de Vauban"}},{"type":"Feature","geometry":{"type":"Point","coordinates":[55.48155,-20.91031]},"properties":{"n":"Mairie annexe du Moufia"}},{"type":"Feature","geometry":{"type":"Point","coordinates":[55.29024,-20.93542]},"properties":{"n":"Mairie du Port"}},{"type":"Feature","geometry":{"type":"Point","coordinates":[55.30555,-20.93661]},"properties":{"n":"Mairie Annexe de la ZUP, Maison du Citoyen et Bureau de l'ANRU"}},{"type":"Feature","geometry":{"type":"Point","coordinates":[55.53915,-21.02766]},"properties":{"n":"Hôtel de Ville de Salazie"}},{"type":"Feature","geometry":{"type":"Point","coordinates":[55.54264,-21.31373]},"properties":{"n":"Mairie annexe de Mont-Vert les Hauts"}},{"type":"Feature","geometry":{"type":"Point","coordinates":[55.48152,-21.34356]},"properties":{"n":"Mairie annexe de Terre-Sainte"}},{"type":"Feature","geometry":{"type":"Point","coordinates":[55.6258,-21.13506]},"properties":{"n":"Mairie de La Plaine-des-Palmistes"}},{"type":"Feature","geometry":{"type":"Point","coordinates":[55.47785,-21.34179]},"properties":{"n":"Mairie de Saint-Pierre"}},{"type":"Feature","geometry":{"type":"Point","coordinates":[55.47049,-21.28581]},"properties":{"n":"Mairie annexe de Ravine des Cabris"}},{"type":"Feature","geometry":{"type":"Point","coordinates":[55.47032,-21.24877]},"properties":{"n":"Maire de l'Entre-Deux"}},{"type":"Feature","geometry":{"type":"Point","coordinates":[55.38125,-20.98468]},"properties":{"n":"Mairie Annexe"}},{"type":"Feature","geometry":{"type":"Point","coordinates":[55.35627,-21.20827]},"properties":{"n":"Mairie Annexe du Tévelave"}},{"type":"Feature","geometry":{"type":"Point","coordinates":[55.42318,-20.88964]},"properties":{"n":"Mairie annexe de La Montagne 8ème"}},{"type":"Feature","geometry":{"type":"Point","coordinates":[55.39952,-20.90867]},"properties":{"n":"Mairie Annexe de la Montagne 15ème"}},{"type":"Feature","geometry":{"type":"Point","coordinates":[55.68109,-20.94379]},"properties":{"n":"Mairie Annexe de Champ Borne"}},{"type":"Feature","geometry":{"type":"Point","coordinates":[55.32752,-20.98152]},"properties":{"n":"Mairie Annexe"}},{"type":"Feature","geometry":{"type":"Point","coordinates":[55.76769,-21.35938]},"properties":{"n":"Mairie de Saint-Philippe"}},{"type":"Feature","geometry":{"type":"Point","coordinates":[55.79329,-21.12768]},"properties":{"n":"Mairie de Sainte-Rose"}},{"type":"Feature","geometry":{"type":"Point","coordinates":[55.58367,-20.92919]},"properties":{"n":"Mairie Annexe"}},{"type":"Feature","geometry":{"type":"Point","coordinates":[55.60748,-20.90552]},"properties":{"n":"Mairie de Sainte-Suzanne"}},{"type":"Feature","geometry":{"type":"Point","coordinates":[55.71263,-21.03401]},"properties":{"n":"Mairie de Saint-Benoit"}},{"type":"Feature","geometry":{"type":"Point","coordinates":[55.74398,-21.08255]},"properties":{"n":"Mairie Annexe de Sainte-Anne"}},{"type":"Feature","geometry":{"type":"Point","coordinates":[55.40921,-21.28663]},"properties":{"n":"Hôtel de ville de Saint-Louis"}},{"type":"Feature","geometry":{"type":"Point","coordinates":[55.51531,-21.27819]},"properties":{"n":"Mairie du Tampon"}},{"type":"Feature","geometry":{"type":"Point","coordinates":[55.36687,-21.26604]},"properties":{"n":"Mairie de l'Étang Salé"}},{"type":"Feature","geometry":{"type":"Point","coordinates":[55.26103,-21.12287]},"properties":{"n":"Mairie Annexe de Trois Bassins"}},{"type":"Feature","geometry":{"type":"Point","coordinates":[55.29596,-21.02043]},"properties":{"n":"Mairie Annexe"}},{"type":"Feature","geometry":{"type":"Point","coordinates":[55.60764,-21.32696]},"properties":{"n":"Mairie Annexe"}},{"type":"Feature","geometry":{"type":"Point","coordinates":[55.6016,-21.34589]},"properties":{"n":"Mairie Annexe"}},{"type":"Feature","geometry":{"type":"Point","coordinates":[55.66739,-21.37295]},"properties":{"n":"Mairie annexe de Vincendo"}},{"type":"Feature","geometry":{"type":"Point","coordinates":[55.65059,-21.38004]},"properties":{"n":"Mairie Annexe"}},{"type":"Feature","geometry":{"type":"Point","coordinates":[55.62844,-21.339]},"properties":{"n":"Mairie Annexe"}},{"type":"Feature","geometry":{"type":"Point","coordinates":[55.61917,-21.37854]},"properties":{"n":"Mairie de Saint-Joseph"}},{"type":"Feature","geometry":{"type":"Point","coordinates":[55.2869,-21.16622]},"properties":{"n":"Mairie de Saint-Leu"}},{"type":"Feature","geometry":{"type":"Point","coordinates":[55.55357,-21.32109]},"properties":{"n":"Mairie Annexe"}},{"type":"Feature","geometry":{"type":"Point","coordinates":[55.23612,-21.09196]},"properties":{"n":"Mairie annexe"}},{"type":"Feature","geometry":{"type":"Point","coordinates":[55.22365,-21.05176]},"properties":{"n":"Mairie annexe"}},{"type":"Feature","geometry":{"type":"Point","coordinates":[55.26662,-21.0487]},"properties":{"n":"Mairie Annexe de Saint Gilles les Hauts"}},{"type":"Feature","geometry":{"type":"Point","coordinates":[55.46642,-20.89336]},"properties":{"n":"Mairie annexe de Montgaillard"}},{"type":"Feature","geometry":{"type":"Point","coordinates":[55.45902,-20.91782]},"properties":{"n":"Mairie annexe de Saint François"}},{"type":"Feature","geometry":{"type":"Point","coordinates":[55.48751,-20.89247]},"properties":{"n":"Mairie annexe du Chaudron"}},{"type":"Feature","geometry":{"type":"Point","coordinates":[55.53299,-20.93544]},"properties":{"n":"Mairie Annexe de la Ressource"}},{"type":"Feature","geometry":{"type":"Point","coordinates":[55.63533,-20.92854]},"properties":{"n":"Mairie Annexe de Sainte-Suzanne"}},{"type":"Feature","geometry":{"type":"Point","coordinates":[55.54294,-21.27885]},"properties":{"n":"Mairie Annexe"}},{"type":"Feature","geometry":{"type":"Point","coordinates":[55.50663,-21.23551]},"properties":{"n":"Mairie annexe de Pont d'Yves"}},{"type":"Feature","geometry":{"type":"Point","coordinates":[55.5346,-21.25698]},"properties":{"n":"Mairie annexe de Bras Creux"}},{"type":"Feature","geometry":{"type":"Point","coordinates":[55.52523,-21.28727]},"properties":{"n":"Mairie Annexe"}},{"type":"Feature","geometry":{"type":"Point","coordinates":[55.55285,-21.21858]},"properties":{"n":"Mairie annexe de la Plaine des Cafres"}},{"type":"Feature","geometry":{"type":"Point","coordinates":[55.33585,-20.92651]},"properties":{"n":"Mairie de la Possession"}},{"type":"Feature","geometry":{"type":"Point","coordinates":[55.34331,-20.95207]},"properties":{"n":"Mairie Annexe"}},{"type":"Feature","geometry":{"type":"Point","coordinates":[55.43798,-21.26439]},"properties":{"n":"Mairie de La Rivière"}},{"type":"Feature","geometry":{"type":"Point","coordinates":[55.26959,-21.0361]},"properties":{"n":"Mairie annexe de Fleurimont"}},{"type":"Feature","geometry":{"type":"Point","coordinates":[55.29824,-21.03597]},"properties":{"n":"Mairie Annexe"}},{"type":"Feature","geometry":{"type":"Point","coordinates":[55.54846,-20.92956]},"properties":{"n":"Mairie Annexe Terrain Elisa"}},{"type":"Feature","geometry":{"type":"Point","coordinates":[55.62035,-20.95197]},"properties":{"n":"Mairie Annexe"}},{"type":"Feature","geometry":{"type":"Point","coordinates":[55.44796,-20.87914]},"properties":{"n":"Hôtel de ville de Saint-Denis"}},{"type":"Feature","geometry":{"type":"Point","coordinates":[55.67616,-20.99522]},"properties":{"n":"Mairie de Bras-Panon"}},{"type":"Feature","geometry":{"type":"Point","coordinates":[55.65793,-20.97568]},"properties":{"n":"Mairie annexe de la Cressonière"}}]}