{"type":"FeatureCollection","features":[{"type":"Feature","geometry":{"type":"Point","coordinates":[55.26729,-21.0479]},"properties":{"n":"Clinique Les Oliviers","type":"hospital"}},{"type":"Feature","geometry":{"type":"Point","coordinates":[55.40572,-21.28588]},"properties":{"n":"CHU Hôpital de Saint-Louis","op":"CHU de la Réunion","type":"hospital","urg":"no"}},{"type":"Feature","geometry":{"type":"Point","coordinates":[55.50803,-21.27481]},"properties":{"n":"Clinique Durieux","type":"clinic","urg":"yes"}},{"type":"Feature","geometry":{"type":"Point","coordinates":[55.6532,-20.95239]},"properties":{"n":"A.S.D.R. (DIALYSE AMBU ST ANDRE)","type":"clinic"}},{"type":"Feature","geometry":{"type":"Point","coordinates":[55.29606,-20.93608]},"properties":{"n":"Centre de dialyse Jeanne d'Arc","type":"clinic"}},{"type":"Feature","geometry":{"type":"Point","coordinates":[55.71015,-21.05791]},"properties":{"n":"Groupe hospitalier Est Reunion","type":"hospital","urg":"yes"}},{"type":"Feature","geometry":{"type":"Point","coordinates":[55.30983,-20.93323]},"properties":{"n":"SISTBI","type":"clinic"}},{"type":"Feature","geometry":{"type":"Point","coordinates":[55.4272,-21.30086]},"properties":{"n":"Clinique les Flamboyants Sud","type":"clinic"}},{"type":"Feature","geometry":{"type":"Point","coordinates":[55.4103,-21.28521]},"properties":{"n":"CHU","type":"hospital"}},{"type":"Feature","geometry":{"type":"Point","coordinates":[55.46897,-21.34059]},"properties":{"n":"Bastide","type":"clinic"}},{"type":"Feature","geometry":{"type":"Point","coordinates":[55.69112,-21.00236]},"properties":{"n":"Maison de Santé de Rivière des Roches","type":"clinic"}},{"type":"Feature","geometry":{"type":"Point","coordinates":[55.44872,-20.88016]},"properties":{"n":"Clinique Saint-Vincent","op":"Clinifutur","type":"clinic"}},{"type":"Feature","geometry":{"type":"Point","coordinates":[55.30053,-20.97719]},"properties":{"n":"Imagerie Médicale Savannah","type":"clinic"}},{"type":"Feature","geometry":{"type":"Point","coordinates":[55.47646,-21.34275]},"properties":{"n":"Centre de Santé Tournesol","type":"clinic"}},{"type":"Feature","geometry":{"type":"Point","coordinates":[55.55252,-21.22151]},"properties":{"n":"Centre médical des Hauts","type":"clinic"}},{"type":"Feature","geometry":{"type":"Point","coordinates":[55.27106,-21.08107]},"properties":{"n":"Maison De La Santé Du Docteur Alexis Pota","type":"clinic"}},{"type":"Feature","geometry":{"type":"Point","coordinates":[55.27078,-21.08096]},"properties":{"n":"Cabinet Infirmier","type":"clinic"}},{"type":"Feature","geometry":{"type":"Point","coordinates":[55.2697,-21.08191]},"properties":{"n":"Cabinet Infirmier","type":"clinic"}},{"type":"Feature","geometry":{"type":"Point","coordinates":[55.52438,-21.27342]},"properties":{"n":"Cabinet Infirmier","type":"clinic"}},{"type":"Feature","geometry":{"type":"Point","coordinates":[55.52539,-21.27333]},"properties":{"n":"Cabinet Infirmier du XIème","type":"clinic"}},{"type":"Feature","geometry":{"type":"Point","coordinates":[55.5155,-21.28058]},"properties":{"n":"Pôle Séquentiel et Ambulatoire","type":"clinic"}},{"type":"Feature","geometry":{"type":"Point","coordinates":[55.51411,-21.28077]},"properties":{"n":"Centre Médico Psychologique","op":"Chu","type":"clinic"}},{"type":"Feature","geometry":{"type":"Point","coordinates":[55.4351,-20.92247]},"properties":{"type":"clinic"}},{"type":"Feature","geometry":{"type":"Point","coordinates":[55.44874,-20.88071]},"properties":{"n":"Pôle de préadmission chirurgie","op":"Clinique Saint-Vincent","type":"clinic"}},{"type":"Feature","geometry":{"type":"Point","coordinates":[55.36638,-21.26237]},"properties":{"n":"Gilles Mondon Énergétique Chinoise","op":"Gilles Mondon","type":"hospital","urg":"no"}},{"type":"Feature","geometry":{"type":"Point","coordinates":[55.49025,-20.89549]},"properties":{"n":"Centre médical Leconte de Lisle","type":"clinic"}},{"type":"Feature","geometry":{"type":"Point","coordinates":[55.33947,-20.9248]},"properties":{"n":"Centre Paramédical","type":"clinic"}},{"type":"Feature","geometry":{"type":"Point","coordinates":[55.48774,-21.34425]},"properties":{"n":"CMPEA Saint Pierre","op":"CHU de la Réunion","type":"hospital"}},{"type":"Feature","geometry":{"type":"Point","coordinates":[55.30069,-20.9427]},"properties":{"n":"Clinique des Orchidées","type":"clinic"}},{"type":"Feature","geometry":{"type":"Point","coordinates":[55.67698,-20.995]},"properties":{"type":"clinic"}},{"type":"Feature","geometry":{"type":"Point","coordinates":[55.48784,-21.34428]},"properties":{"n":"CMPEA Saint Pierre","op":"CHU de la Réunion","type":"hospital","urg":"no"}},{"type":"Feature","geometry":{"type":"Point","coordinates":[55.41005,-21.28776]},"properties":{"n":"Espace Médical St. Louisien","type":"clinic"}},{"type":"Feature","geometry":{"type":"Point","coordinates":[55.49388,-21.34538]},"properties":{"n":"CHU de Saint-Pierre","op":"CHU de la Réunion","type":"hospital","urg":"yes"}},{"type":"Feature","geometry":{"type":"Point","coordinates":[55.26576,-21.04813]},"properties":{"type":"clinic"}},{"type":"Feature","geometry":{"type":"Point","coordinates":[55.44951,-20.88844]},"properties":{"n":"Hopital d'enfants","type":"hospital"}},{"type":"Feature","geometry":{"type":"Point","coordinates":[55.47896,-20.90247]},"properties":{"n":"Clinique de Sainte-Clotilde","type":"clinic"}},{"type":"Feature","geometry":{"type":"Point","coordinates":[55.51391,-21.258]},"properties":{"n":"Unité de soin longue durée","type":"clinic"}},{"type":"Feature","geometry":{"type":"Point","coordinates":[55.33936,-20.95467]},"properties":{"n":"Pharmacie Sainte-Thérèse","type":"hospital"}},{"type":"Feature","geometry":{"type":"Point","coordinates":[55.30433,-20.94755]},"properties":{"n":"Clinique les Tamarins","type":"clinic"}},{"type":"Feature","geometry":{"type":"Point","coordinates":[55.44406,-20.89128]},"properties":{"n":"CHU Félix Guyon","op":"CHU de la Réunion","type":"hospital","urg":"yes"}},{"type":"Feature","geometry":{"type":"Point","coordinates":[55.47741,-20.90276]},"properties":{"n":"Centre de dialyse Sainte-Clotilde","type":"clinic"}},{"type":"Feature","geometry":{"type":"Point","coordinates":[55.47986,-21.13319]},"properties":{"n":"CHU de la Réunion - Site Sud Cilaos","op":"CHU de la Réunion","type":"hospital","urg":"no"}},{"type":"Feature","geometry":{"type":"Point","coordinates":[55.3054,-20.94654]},"properties":{"n":"Clinique des Flamboyants","type":"clinic"}},{"type":"Feature","geometry":{"type":"Point","coordinates":[55.30086,-20.97629]},"properties":{"n":"Centre Hospitalier Ouest Réunion","type":"hospital","urg":"yes"}},{"type":"Feature","geometry":{"type":"Point","coordinates":[55.7091,-21.05588]},"properties":{"n":"EPSMR Hôpital psychiatrique","type":"hospital","urg":"no"}},{"type":"Feature","geometry":{"type":"Point","coordinates":[55.6192,-21.38005]},"properties":{"n":"Hôpital de Saint-Joseph","type":"hospital"}},{"type":"Feature","geometry":{"type":"Point","coordinates":[55.61189,-21.37806]},"properties":{"n":"Clinique Saint-Joseph","type":"hospital"}},{"type":"Feature","geometry":{"type":"Point","coordinates":[55.71059,-21.057]},"properties":{"n":"Fondation Père Favron","type":"hospital"}},{"type":"Feature","geometry":{"type":"Point","coordinates":[55.71146,-21.05748]},"properties":{"n":"AURAR","type":"clinic"}},{"type":"Feature","geometry":{"type":"Point","coordinates":[55.65352,-20.95315]},"properties":{"n":"Maison des Soins de l'Est","type":"clinic"}},{"type":"Feature","geometry":{"type":"Point","coordinates":[55.36731,-21.26558]},"properties":{"n":"CEMES : Centre d'Échographie Médicale de l'Étang Salé","op":"Philippe Chancé","type":"clinic"}},{"type":"Feature","geometry":{"type":"Point","coordinates":[55.52167,-21.27654]},"properties":{"type":"hospital"}},{"type":"Feature","geometry":{"type":"Point","coordinates":[55.65506,-20.95328]},"properties":{"n":"Groupe Hospitalier Est Réunion","type":"hospital"}},{"type":"Feature","geometry":{"type":"Point","coordinates":[55.30424,-20.94765]},"properties":{"n":"Clinique des Tamarins","type":"hospital"}},{"type":"Feature","geometry":{"type":"Point","coordinates":[55.67409,-20.99503]},"properties":{"n":"Clinique les Flamboyants","type":"hospital"}},{"type":"Feature","geometry":{"type":"Point","coordinates":[55.49472,-21.3432]},"properties":{"n":"AURAR","op":"AURAR","type":"clinic"}},{"type":"Feature","geometry":{"type":"Point","coordinates":[55.4437,-20.89134]},"properties":{"n":"CHU nord site Felix Guyon","op":"CHU de la Réunion","type":"hospital"}},{"type":"Feature","geometry":{"type":"Point","coordinates":[55.49384,-21.34441]},"properties":{"n":"CHU sud Terre Sainte","op":"CHU de la Réunion","type":"hospital","urg":"yes"}},{"type":"Feature","geometry":{"type":"Point","coordinates":[55.70984,-21.05795]},"properties":{"type":"hospital"}},{"type":"Feature","geometry":{"type":"Point","coordinates":[55.7092,-21.05724]},"properties":{"n":"Clinique de la Paix","op":"Groupe de santé Clinifutur","type":"hospital"}}]}