{"type":"FeatureCollection","features":[{"type":"Feature","geometry":{"type":"Point","coordinates":[55.35515,-21.26902]},"properties":{}},{"type":"Feature","geometry":{"type":"Point","coordinates":[55.35647,-21.26541]},"properties":{}},{"type":"Feature","geometry":{"type":"Point","coordinates":[55.47617,-20.88932]},"properties":{}},{"type":"Feature","geometry":{"type":"Point","coordinates":[55.54894,-21.3698]},"properties":{}},{"type":"Feature","geometry":{"type":"Point","coordinates":[55.54851,-21.36948]},"properties":{}},{"type":"Feature","geometry":{"type":"Point","coordinates":[55.53608,-21.06059]},"properties":{}},{"type":"Feature","geometry":{"type":"Point","coordinates":[55.47794,-21.05916]},"properties":{}},{"type":"Feature","geometry":{"type":"Point","coordinates":[55.55186,-21.06827]},"properties":{}},{"type":"Feature","geometry":{"type":"Point","coordinates":[55.46751,-20.88926]},"properties":{}},{"type":"Feature","geometry":{"type":"Point","coordinates":[55.46606,-20.89005]},"properties":{}},{"type":"Feature","geometry":{"type":"Point","coordinates":[55.45527,-20.8973]},"properties":{}},{"type":"Feature","geometry":{"type":"Point","coordinates":[55.48568,-21.34251]},"properties":{}},{"type":"Feature","geometry":{"type":"Point","coordinates":[55.55179,-21.22668]},"properties":{}},{"type":"Feature","geometry":{"type":"Point","coordinates":[55.26955,-21.00843]},"properties":{}},{"type":"Feature","geometry":{"type":"Point","coordinates":[55.47236,-21.13274]},"properties":{}},{"type":"Feature","geometry":{"type":"Point","coordinates":[55.47686,-21.13317]},"properties":{}},{"type":"Feature","geometry":{"type":"Point","coordinates":[55.4472,-20.87535]},"properties":{}},{"type":"Feature","geometry":{"type":"Point","coordinates":[55.44761,-20.87586]},"properties":{}},{"type":"Feature","geometry":{"type":"Point","coordinates":[55.3931,-21.04263]},"properties":{}},{"type":"Feature","geometry":{"type":"Point","coordinates":[55.43485,-21.10358]},"properties":{}},{"type":"Feature","geometry":{"type":"Point","coordinates":[55.47206,-21.13127]},"properties":{}},{"type":"Feature","geometry":{"type":"Point","coordinates":[55.47877,-21.34132]},"properties":{}},{"type":"Feature","geometry":{"type":"Point","coordinates":[55.30533,-20.92999]},"properties":{}},{"type":"Feature","geometry":{"type":"Point","coordinates":[55.29189,-20.93458]},"properties":{}},{"type":"Feature","geometry":{"type":"Point","coordinates":[55.29828,-20.92839]},"properties":{}},{"type":"Feature","geometry":{"type":"Point","coordinates":[55.29425,-20.92708]},"properties":{}},{"type":"Feature","geometry":{"type":"Point","coordinates":[55.30837,-20.92986]},"properties":{}},{"type":"Feature","geometry":{"type":"Point","coordinates":[55.29196,-20.93426]},"properties":{}},{"type":"Feature","geometry":{"type":"Point","coordinates":[55.29176,-20.93413]},"properties":{}},{"type":"Feature","geometry":{"type":"Point","coordinates":[55.3084,-20.92981]},"properties":{}},{"type":"Feature","geometry":{"type":"Point","coordinates":[55.29172,-20.93454]},"properties":{}},{"type":"Feature","geometry":{"type":"Point","coordinates":[55.28632,-21.17016]},"properties":{}},{"type":"Feature","geometry":{"type":"Point","coordinates":[55.47106,-21.13154]},"properties":{}},{"type":"Feature","geometry":{"type":"Point","coordinates":[55.58731,-20.89764]},"properties":{}},{"type":"Feature","geometry":{"type":"Point","coordinates":[55.46341,-21.33726]},"properties":{}},{"type":"Feature","geometry":{"type":"Point","coordinates":[55.46237,-21.33857]},"properties":{}},{"type":"Feature","geometry":{"type":"Point","coordinates":[55.46232,-21.33872]},"properties":{}},{"type":"Feature","geometry":{"type":"Point","coordinates":[55.4628,-21.33785]},"properties":{}},{"type":"Feature","geometry":{"type":"Point","coordinates":[55.44879,-21.11334]},"properties":{}},{"type":"Feature","geometry":{"type":"Point","coordinates":[55.45118,-21.1174]},"properties":{}},{"type":"Feature","geometry":{"type":"Point","coordinates":[55.47258,-21.34404]},"properties":{}},{"type":"Feature","geometry":{"type":"Point","coordinates":[55.45901,-21.34027]},"properties":{}},{"type":"Feature","geometry":{"type":"Point","coordinates":[55.45838,-21.33971]},"properties":{}},{"type":"Feature","geometry":{"type":"Point","coordinates":[55.45704,-21.33451]},"properties":{}},{"type":"Feature","geometry":{"type":"Point","coordinates":[55.46047,-21.34052]},"properties":{}},{"type":"Feature","geometry":{"type":"Point","coordinates":[55.45987,-21.34003]},"properties":{}},{"type":"Feature","geometry":{"type":"Point","coordinates":[55.45928,-21.33949]},"properties":{}},{"type":"Feature","geometry":{"type":"Point","coordinates":[55.45896,-21.3392]},"properties":{}},{"type":"Feature","geometry":{"type":"Point","coordinates":[55.27938,-20.99732]},"properties":{}},{"type":"Feature","geometry":{"type":"Point","coordinates":[55.28837,-21.16707]},"properties":{}},{"type":"Feature","geometry":{"type":"Point","coordinates":[55.26637,-21.098]},"properties":{}},{"type":"Feature","geometry":{"type":"Point","coordinates":[55.47616,-21.252]},"properties":{}},{"type":"Feature","geometry":{"type":"Point","coordinates":[55.53658,-21.06081]},"properties":{}},{"type":"Feature","geometry":{"type":"Point","coordinates":[55.47699,-21.15083]},"properties":{}},{"type":"Feature","geometry":{"type":"Point","coordinates":[55.4278,-20.90489]},"properties":{}},{"type":"Feature","geometry":{"type":"Point","coordinates":[55.33304,-21.26646]},"properties":{}},{"type":"Feature","geometry":{"type":"Point","coordinates":[55.35577,-21.20592]},"properties":{}},{"type":"Feature","geometry":{"type":"Point","coordinates":[55.39946,-21.21166]},"properties":{}},{"type":"Feature","geometry":{"type":"Point","coordinates":[55.35338,-21.26671]},"properties":{}},{"type":"Feature","geometry":{"type":"Point","coordinates":[55.47092,-21.13498]},"properties":{}},{"type":"Feature","geometry":{"type":"Point","coordinates":[55.57577,-21.20504]},"properties":{}},{"type":"Feature","geometry":{"type":"Point","coordinates":[55.2325,-21.08491]},"properties":{}},{"type":"Feature","geometry":{"type":"Point","coordinates":[55.25467,-21.05575]},"properties":{}},{"type":"Feature","geometry":{"type":"Point","coordinates":[55.25878,-21.05602]},"properties":{}},{"type":"Feature","geometry":{"type":"Point","coordinates":[55.25923,-21.05595]},"properties":{}},{"type":"Feature","geometry":{"type":"Point","coordinates":[55.22475,-21.08173]},"properties":{}},{"type":"Feature","geometry":{"type":"Point","coordinates":[55.28725,-21.17869]},"properties":{}},{"type":"Feature","geometry":{"type":"Point","coordinates":[55.44995,-20.88726]},"properties":{}},{"type":"Feature","geometry":{"type":"Point","coordinates":[55.53452,-21.18783]},"properties":{}},{"type":"Feature","geometry":{"type":"Point","coordinates":[55.39306,-21.04238]},"properties":{}},{"type":"Feature","geometry":{"type":"Point","coordinates":[55.42454,-21.01848]},"properties":{}},{"type":"Feature","geometry":{"type":"Point","coordinates":[55.39991,-21.03661]},"properties":{}},{"type":"Feature","geometry":{"type":"Point","coordinates":[55.42749,-21.02192]},"properties":{}},{"type":"Feature","geometry":{"type":"Point","coordinates":[55.33129,-20.95048]},"properties":{}},{"type":"Feature","geometry":{"type":"Point","coordinates":[55.33081,-20.93939]},"properties":{}},{"type":"Feature","geometry":{"type":"Point","coordinates":[55.33838,-20.92692]},"properties":{}},{"type":"Feature","geometry":{"type":"Point","coordinates":[55.33528,-20.95731]},"properties":{}},{"type":"Feature","geometry":{"type":"Point","coordinates":[55.521,-21.06459]},"properties":{}},{"type":"Feature","geometry":{"type":"Point","coordinates":[55.47329,-21.01531]},"properties":{}},{"type":"Feature","geometry":{"type":"Point","coordinates":[55.54061,-20.8952]},"properties":{}},{"type":"Feature","geometry":{"type":"Point","coordinates":[55.46085,-21.12717]},"properties":{}},{"type":"Feature","geometry":{"type":"Point","coordinates":[55.52216,-21.25017]},"properties":{}},{"type":"Feature","geometry":{"type":"Point","coordinates":[55.53157,-20.89282]},"properties":{}},{"type":"Feature","geometry":{"type":"Point","coordinates":[55.42497,-21.0195]},"properties":{}},{"type":"Feature","geometry":{"type":"Point","coordinates":[55.43788,-20.92186]},"properties":{"n":"Le Brûlé"}},{"type":"Feature","geometry":{"type":"Point","coordinates":[55.28189,-20.98949]},"properties":{}},{"type":"Feature","geometry":{"type":"Point","coordinates":[55.43798,-21.14822]},"properties":{}},{"type":"Feature","geometry":{"type":"Point","coordinates":[55.53662,-21.06015]},"properties":{}},{"type":"Feature","geometry":{"type":"Point","coordinates":[55.47439,-21.12646]},"properties":{}},{"type":"Feature","geometry":{"type":"Point","coordinates":[55.47366,-21.12646]},"properties":{}},{"type":"Feature","geometry":{"type":"Point","coordinates":[55.55312,-21.37068]},"properties":{}},{"type":"Feature","geometry":{"type":"Point","coordinates":[55.51789,-21.29344]},"properties":{}},{"type":"Feature","geometry":{"type":"Point","coordinates":[55.51893,-21.28972]},"properties":{}},{"type":"Feature","geometry":{"type":"Point","coordinates":[55.47367,-21.12647]},"properties":{}},{"type":"Feature","geometry":{"type":"Point","coordinates":[55.43375,-21.10428]},"properties":{}},{"type":"Feature","geometry":{"type":"Point","coordinates":[55.50719,-21.06223]},"properties":{}},{"type":"Feature","geometry":{"type":"Point","coordinates":[55.54224,-21.16881]},"properties":{}},{"type":"Feature","geometry":{"type":"Point","coordinates":[55.391,-20.98347]},"properties":{}},{"type":"Feature","geometry":{"type":"Point","coordinates":[55.48559,-21.13687]},"properties":{}},{"type":"Feature","geometry":{"type":"Point","coordinates":[55.47369,-21.12645]},"properties":{}},{"type":"Feature","geometry":{"type":"Point","coordinates":[55.47407,-21.1265]},"properties":{}},{"type":"Feature","geometry":{"type":"Point","coordinates":[55.30954,-20.99371]},"properties":{}},{"type":"Feature","geometry":{"type":"Point","coordinates":[55.39971,-21.06894]},"properties":{}},{"type":"Feature","geometry":{"type":"Point","coordinates":[55.398,-21.06792]},"properties":{}},{"type":"Feature","geometry":{"type":"Point","coordinates":[55.3911,-21.05176]},"properties":{}},{"type":"Feature","geometry":{"type":"Point","coordinates":[55.48471,-20.88617]},"properties":{}},{"type":"Feature","geometry":{"type":"Point","coordinates":[55.64728,-21.38354]},"properties":{}},{"type":"Feature","geometry":{"type":"Point","coordinates":[55.6438,-21.38716]},"properties":{}},{"type":"Feature","geometry":{"type":"Point","coordinates":[55.74819,-21.0832]},"properties":{}},{"type":"Feature","geometry":{"type":"Point","coordinates":[55.48429,-21.35101]},"properties":{}},{"type":"Feature","geometry":{"type":"Point","coordinates":[55.53687,-21.19111]},"properties":{}},{"type":"Feature","geometry":{"type":"Point","coordinates":[55.61896,-21.37865]},"properties":{}},{"type":"Feature","geometry":{"type":"Point","coordinates":[55.60966,-21.32858]},"properties":{}},{"type":"Feature","geometry":{"type":"Point","coordinates":[55.61855,-21.37916]},"properties":{}},{"type":"Feature","geometry":{"type":"Point","coordinates":[55.27227,-21.0058]},"properties":{}},{"type":"Feature","geometry":{"type":"Point","coordinates":[55.42311,-20.90799]},"properties":{}},{"type":"Feature","geometry":{"type":"Point","coordinates":[55.47148,-20.89331]},"properties":{}},{"type":"Feature","geometry":{"type":"Point","coordinates":[55.33582,-20.96732]},"properties":{}},{"type":"Feature","geometry":{"type":"Point","coordinates":[55.33088,-20.93898]},"properties":{}},{"type":"Feature","geometry":{"type":"Point","coordinates":[55.52245,-21.25468]},"properties":{}},{"type":"Feature","geometry":{"type":"Point","coordinates":[55.69987,-21.00374]},"properties":{}},{"type":"Feature","geometry":{"type":"Point","coordinates":[55.58928,-21.37328]},"properties":{}},{"type":"Feature","geometry":{"type":"Point","coordinates":[55.677,-21.37781]},"properties":{}},{"type":"Feature","geometry":{"type":"Point","coordinates":[55.57953,-21.19997]},"properties":{}},{"type":"Feature","geometry":{"type":"Point","coordinates":[55.48808,-21.24843]},"properties":{}},{"type":"Feature","geometry":{"type":"Point","coordinates":[55.46062,-20.88508]},"properties":{}},{"type":"Feature","geometry":{"type":"Point","coordinates":[55.47175,-21.23834]},"properties":{}},{"type":"Feature","geometry":{"type":"Point","coordinates":[55.49287,-21.30136]},"properties":{}},{"type":"Feature","geometry":{"type":"Point","coordinates":[55.44578,-21.32127]},"properties":{}},{"type":"Feature","geometry":{"type":"Point","coordinates":[55.54782,-21.36876]},"properties":{}},{"type":"Feature","geometry":{"type":"Point","coordinates":[55.54749,-21.3684]},"properties":{}},{"type":"Feature","geometry":{"type":"Point","coordinates":[55.54712,-21.3681]},"properties":{}},{"type":"Feature","geometry":{"type":"Point","coordinates":[55.54677,-21.36781]},"properties":{}},{"type":"Feature","geometry":{"type":"Point","coordinates":[55.5463,-21.36747]},"properties":{}},{"type":"Feature","geometry":{"type":"Point","coordinates":[55.54607,-21.3673]},"properties":{}},{"type":"Feature","geometry":{"type":"Point","coordinates":[55.74588,-21.08057]},"properties":{}},{"type":"Feature","geometry":{"type":"Point","coordinates":[55.74326,-21.07988]},"properties":{}},{"type":"Feature","geometry":{"type":"Point","coordinates":[55.60962,-21.38538]},"properties":{}},{"type":"Feature","geometry":{"type":"Point","coordinates":[55.61917,-21.38295]},"properties":{}},{"type":"Feature","geometry":{"type":"Point","coordinates":[55.60181,-20.90147]},"properties":{}},{"type":"Feature","geometry":{"type":"Point","coordinates":[55.5383,-20.89526]},"properties":{}},{"type":"Feature","geometry":{"type":"Point","coordinates":[55.22152,-21.07792]},"properties":{}},{"type":"Feature","geometry":{"type":"Point","coordinates":[55.27454,-21.00397]},"properties":{}},{"type":"Feature","geometry":{"type":"Point","coordinates":[55.27328,-21.00506]},"properties":{}},{"type":"Feature","geometry":{"type":"Point","coordinates":[55.27185,-21.0063]},"properties":{}},{"type":"Feature","geometry":{"type":"Point","coordinates":[55.27478,-21.00365]},"properties":{}},{"type":"Feature","geometry":{"type":"Point","coordinates":[55.43434,-20.91544]},"properties":{}},{"type":"Feature","geometry":{"type":"Point","coordinates":[55.64909,-20.96086]},"properties":{}},{"type":"Feature","geometry":{"type":"Point","coordinates":[55.54608,-20.89548]},"properties":{}},{"type":"Feature","geometry":{"type":"Point","coordinates":[55.4751,-21.34405]},"properties":{}},{"type":"Feature","geometry":{"type":"Point","coordinates":[55.47347,-21.34395]},"properties":{}},{"type":"Feature","geometry":{"type":"Point","coordinates":[55.47042,-21.34393]},"properties":{}},{"type":"Feature","geometry":{"type":"Point","coordinates":[55.46736,-21.34308]},"properties":{}},{"type":"Feature","geometry":{"type":"Point","coordinates":[55.46752,-21.34256]},"properties":{}},{"type":"Feature","geometry":{"type":"Point","coordinates":[55.62137,-21.13248]},"properties":{"op":"pas d'eau le 23 octobre 2024"}},{"type":"Feature","geometry":{"type":"Point","coordinates":[55.49605,-21.13082]},"properties":{}},{"type":"Feature","geometry":{"type":"Point","coordinates":[55.49567,-21.13149]},"properties":{}},{"type":"Feature","geometry":{"type":"Point","coordinates":[55.42347,-20.90854]},"properties":{}},{"type":"Feature","geometry":{"type":"Point","coordinates":[55.44406,-20.98816]},"properties":{}},{"type":"Feature","geometry":{"type":"Point","coordinates":[55.2902,-21.01383]},"properties":{}},{"type":"Feature","geometry":{"type":"Point","coordinates":[55.33472,-20.93645]},"properties":{}},{"type":"Feature","geometry":{"type":"Point","coordinates":[55.47214,-20.89184]},"properties":{}},{"type":"Feature","geometry":{"type":"Point","coordinates":[55.47216,-20.89208]},"properties":{}},{"type":"Feature","geometry":{"type":"Point","coordinates":[55.47223,-20.8927]},"properties":{}},{"type":"Feature","geometry":{"type":"Point","coordinates":[55.47196,-20.89741]},"properties":{}},{"type":"Feature","geometry":{"type":"Point","coordinates":[55.4711,-20.89582]},"properties":{}},{"type":"Feature","geometry":{"type":"Point","coordinates":[55.58351,-21.37212]},"properties":{}},{"type":"Feature","geometry":{"type":"Point","coordinates":[55.45355,-20.89058]},"properties":{}},{"type":"Feature","geometry":{"type":"Point","coordinates":[55.45802,-21.29866]},"properties":{}},{"type":"Feature","geometry":{"type":"Point","coordinates":[55.535,-21.18157]},"properties":{}},{"type":"Feature","geometry":{"type":"Point","coordinates":[55.5243,-21.06598]},"properties":{}},{"type":"Feature","geometry":{"type":"Point","coordinates":[55.60968,-21.38438]},"properties":{}},{"type":"Feature","geometry":{"type":"Point","coordinates":[55.60863,-21.38531]},"properties":{}},{"type":"Feature","geometry":{"type":"Point","coordinates":[55.47926,-21.12598]},"properties":{}},{"type":"Feature","geometry":{"type":"Point","coordinates":[55.49553,-21.13106]},"properties":{}},{"type":"Feature","geometry":{"type":"Point","coordinates":[55.48509,-21.1371]},"properties":{}},{"type":"Feature","geometry":{"type":"Point","coordinates":[55.26118,-21.01485]},"properties":{}},{"type":"Feature","geometry":{"type":"Point","coordinates":[55.62068,-21.37786]},"properties":{}},{"type":"Feature","geometry":{"type":"Point","coordinates":[55.45305,-21.29677]},"properties":{}},{"type":"Feature","geometry":{"type":"Point","coordinates":[55.42617,-21.04043]},"properties":{}},{"type":"Feature","geometry":{"type":"Point","coordinates":[55.61363,-21.38093]},"properties":{}},{"type":"Feature","geometry":{"type":"Point","coordinates":[55.27338,-21.00937]},"properties":{}},{"type":"Feature","geometry":{"type":"Point","coordinates":[55.61518,-21.37797]},"properties":{}},{"type":"Feature","geometry":{"type":"Point","coordinates":[55.4793,-21.34331]},"properties":{}},{"type":"Feature","geometry":{"type":"Point","coordinates":[55.47478,-21.34059]},"properties":{}},{"type":"Feature","geometry":{"type":"Point","coordinates":[55.39545,-21.06024]},"properties":{}},{"type":"Feature","geometry":{"type":"Point","coordinates":[55.52475,-21.06593]},"properties":{}},{"type":"Feature","geometry":{"type":"Point","coordinates":[55.63646,-21.12652]},"properties":{}},{"type":"Feature","geometry":{"type":"Point","coordinates":[55.56475,-21.35444]},"properties":{}},{"type":"Feature","geometry":{"type":"Point","coordinates":[55.6086,-21.38252]},"properties":{}},{"type":"Feature","geometry":{"type":"Point","coordinates":[55.62861,-21.13509]},"properties":{}},{"type":"Feature","geometry":{"type":"Point","coordinates":[55.28446,-21.02572]},"properties":{}},{"type":"Feature","geometry":{"type":"Point","coordinates":[55.2918,-21.01525]},"properties":{}},{"type":"Feature","geometry":{"type":"Point","coordinates":[55.62649,-21.37331]},"properties":{}},{"type":"Feature","geometry":{"type":"Point","coordinates":[55.62662,-21.37317]},"properties":{}},{"type":"Feature","geometry":{"type":"Point","coordinates":[55.62634,-21.37424]},"properties":{}},{"type":"Feature","geometry":{"type":"Point","coordinates":[55.28206,-21.0094]},"properties":{}},{"type":"Feature","geometry":{"type":"Point","coordinates":[55.47541,-20.88532]},"properties":{}},{"type":"Feature","geometry":{"type":"Point","coordinates":[55.45073,-20.88666]},"properties":{}},{"type":"Feature","geometry":{"type":"Point","coordinates":[55.44728,-20.87259]},"properties":{}},{"type":"Feature","geometry":{"type":"Point","coordinates":[55.28418,-21.02561]},"properties":{}},{"type":"Feature","geometry":{"type":"Point","coordinates":[55.48687,-21.346]},"properties":{}},{"type":"Feature","geometry":{"type":"Point","coordinates":[55.51631,-21.06285]},"properties":{}},{"type":"Feature","geometry":{"type":"Point","coordinates":[55.47625,-21.02998]},"properties":{}},{"type":"Feature","geometry":{"type":"Point","coordinates":[55.44301,-20.88431]},"properties":{"op":"Stade de la Redoute"}},{"type":"Feature","geometry":{"type":"Point","coordinates":[55.41138,-20.94975]},"properties":{}},{"type":"Feature","geometry":{"type":"Point","coordinates":[55.45707,-21.29933]},"properties":{}},{"type":"Feature","geometry":{"type":"Point","coordinates":[55.28228,-21.20285]},"properties":{}},{"type":"Feature","geometry":{"type":"Point","coordinates":[55.46677,-20.8834]},"properties":{}},{"type":"Feature","geometry":{"type":"Point","coordinates":[55.27538,-21.00273]},"properties":{}},{"type":"Feature","geometry":{"type":"Point","coordinates":[55.45008,-20.88693]},"properties":{}},{"type":"Feature","geometry":{"type":"Point","coordinates":[55.26382,-21.034]},"properties":{}},{"type":"Feature","geometry":{"type":"Point","coordinates":[55.6177,-21.37628]},"properties":{}},{"type":"Feature","geometry":{"type":"Point","coordinates":[55.66757,-21.37341]},"properties":{}},{"type":"Feature","geometry":{"type":"Point","coordinates":[55.82055,-21.19713]},"properties":{}},{"type":"Feature","geometry":{"type":"Point","coordinates":[55.33903,-20.98015]},"properties":{}},{"type":"Feature","geometry":{"type":"Point","coordinates":[55.58698,-21.37135]},"properties":{}},{"type":"Feature","geometry":{"type":"Point","coordinates":[55.49874,-21.34897]},"properties":{}},{"type":"Feature","geometry":{"type":"Point","coordinates":[55.49659,-21.251]},"properties":{}},{"type":"Feature","geometry":{"type":"Point","coordinates":[55.50018,-20.89584]},"properties":{}},{"type":"Feature","geometry":{"type":"Point","coordinates":[55.52226,-21.25483]},"properties":{}},{"type":"Feature","geometry":{"type":"Point","coordinates":[55.56907,-20.89375]},"properties":{}},{"type":"Feature","geometry":{"type":"Point","coordinates":[55.39321,-21.03079]},"properties":{}},{"type":"Feature","geometry":{"type":"Point","coordinates":[55.62591,-21.08459]},"properties":{}},{"type":"Feature","geometry":{"type":"Point","coordinates":[55.48206,-21.12319]},"properties":{}},{"type":"Feature","geometry":{"type":"Point","coordinates":[55.40289,-21.05692]},"properties":{"n":"Source"}},{"type":"Feature","geometry":{"type":"Point","coordinates":[55.42637,-21.0945]},"properties":{"n":"Source"}},{"type":"Feature","geometry":{"type":"Point","coordinates":[55.45105,-20.88678]},"properties":{}},{"type":"Feature","geometry":{"type":"Point","coordinates":[55.61079,-21.37679]},"properties":{}},{"type":"Feature","geometry":{"type":"Point","coordinates":[55.64666,-21.38659]},"properties":{}},{"type":"Feature","geometry":{"type":"Point","coordinates":[55.64681,-21.38649]},"properties":{}},{"type":"Feature","geometry":{"type":"Point","coordinates":[55.48759,-20.88627]},"properties":{}},{"type":"Feature","geometry":{"type":"Point","coordinates":[55.45118,-20.87214]},"properties":{}},{"type":"Feature","geometry":{"type":"Point","coordinates":[55.46484,-20.88208]},"properties":{}},{"type":"Feature","geometry":{"type":"Point","coordinates":[55.46195,-20.88031]},"properties":{}},{"type":"Feature","geometry":{"type":"Point","coordinates":[55.46305,-20.88079]},"properties":{}},{"type":"Feature","geometry":{"type":"Point","coordinates":[55.46933,-20.88441]},"properties":{}},{"type":"Feature","geometry":{"type":"Point","coordinates":[55.47977,-20.88523]},"properties":{}},{"type":"Feature","geometry":{"type":"Point","coordinates":[55.49308,-20.88617]},"properties":{}},{"type":"Feature","geometry":{"type":"Point","coordinates":[55.48816,-20.88628]},"properties":{}},{"type":"Feature","geometry":{"type":"Point","coordinates":[55.49143,-20.88607]},"properties":{}},{"type":"Feature","geometry":{"type":"Point","coordinates":[55.48915,-20.8863]},"properties":{}},{"type":"Feature","geometry":{"type":"Point","coordinates":[55.49259,-20.88559]},"properties":{}},{"type":"Feature","geometry":{"type":"Point","coordinates":[55.47188,-20.89221]},"properties":{}},{"type":"Feature","geometry":{"type":"Point","coordinates":[55.66673,-21.34017]},"properties":{}},{"type":"Feature","geometry":{"type":"Point","coordinates":[55.76912,-21.35856]},"properties":{}},{"type":"Feature","geometry":{"type":"Point","coordinates":[55.28889,-21.03717]},"properties":{}},{"type":"Feature","geometry":{"type":"Point","coordinates":[55.55268,-20.89706]},"properties":{}},{"type":"Feature","geometry":{"type":"Point","coordinates":[55.4478,-20.87227]},"properties":{}},{"type":"Feature","geometry":{"type":"Point","coordinates":[55.49437,-21.25333]},"properties":{}},{"type":"Feature","geometry":{"type":"Point","coordinates":[55.49574,-21.25233]},"properties":{}},{"type":"Feature","geometry":{"type":"Point","coordinates":[55.49504,-21.25235]},"properties":{}},{"type":"Feature","geometry":{"type":"Point","coordinates":[55.49472,-21.25306]},"properties":{}},{"type":"Feature","geometry":{"type":"Point","coordinates":[55.49344,-21.25379]},"properties":{}},{"type":"Feature","geometry":{"type":"Point","coordinates":[55.38185,-20.9849]},"properties":{}},{"type":"Feature","geometry":{"type":"Point","coordinates":[55.38234,-20.98465]},"properties":{}},{"type":"Feature","geometry":{"type":"Point","coordinates":[55.33583,-20.96707]},"properties":{}},{"type":"Feature","geometry":{"type":"Point","coordinates":[55.47226,-20.89333]},"properties":{}},{"type":"Feature","geometry":{"type":"Point","coordinates":[55.50636,-20.9294]},"properties":{}}]}