{"type":"FeatureCollection","features":[{"type":"Feature","geometry":{"type":"Point","coordinates":[55.26426,-21.09873]},"properties":{"n":"Aire de Tabac"}},{"type":"Feature","geometry":{"type":"Point","coordinates":[55.35639,-21.19687]},"properties":{}},{"type":"Feature","geometry":{"type":"Point","coordinates":[55.35986,-21.19534]},"properties":{}},{"type":"Feature","geometry":{"type":"Point","coordinates":[55.43468,-20.94782]},"properties":{"n":"Le Brûlé"}},{"type":"Feature","geometry":{"type":"Point","coordinates":[55.52485,-21.06573]},"properties":{}},{"type":"Feature","geometry":{"type":"Point","coordinates":[55.53619,-21.06051]},"properties":{}},{"type":"Feature","geometry":{"type":"Point","coordinates":[55.42291,-21.07693]},"properties":{}},{"type":"Feature","geometry":{"type":"Point","coordinates":[55.29531,-20.92724]},"properties":{}},{"type":"Feature","geometry":{"type":"Point","coordinates":[55.30682,-20.92991]},"properties":{}},{"type":"Feature","geometry":{"type":"Point","coordinates":[55.45119,-21.11732]},"properties":{}},{"type":"Feature","geometry":{"type":"Point","coordinates":[55.42087,-21.0742]},"properties":{}},{"type":"Feature","geometry":{"type":"Point","coordinates":[55.56218,-21.21639]},"properties":{}},{"type":"Feature","geometry":{"type":"Point","coordinates":[55.43737,-21.18981]},"properties":{}},{"type":"Feature","geometry":{"type":"Point","coordinates":[55.82794,-21.1848]},"properties":{}},{"type":"Feature","geometry":{"type":"Point","coordinates":[55.47938,-21.12607]},"properties":{}},{"type":"Feature","geometry":{"type":"Point","coordinates":[55.34048,-21.27976]},"properties":{}},{"type":"Feature","geometry":{"type":"Point","coordinates":[55.50798,-21.26843]},"properties":{"n":"Kiosque"}},{"type":"Feature","geometry":{"type":"Point","coordinates":[55.68269,-21.03982]},"properties":{"n":"Bethléem"}},{"type":"Feature","geometry":{"type":"Point","coordinates":[55.58905,-21.16594]},"properties":{"n":"Col de Bellevue"}},{"type":"Feature","geometry":{"type":"Point","coordinates":[55.70536,-21.02426]},"properties":{}},{"type":"Feature","geometry":{"type":"Point","coordinates":[55.49583,-21.13176]},"properties":{}},{"type":"Feature","geometry":{"type":"Point","coordinates":[55.50549,-21.02752]},"properties":{}},{"type":"Feature","geometry":{"type":"Point","coordinates":[55.37664,-21.17527]},"properties":{}},{"type":"Feature","geometry":{"type":"Point","coordinates":[55.41978,-21.26038]},"properties":{"n":"Parc du Gol"}},{"type":"Feature","geometry":{"type":"Point","coordinates":[55.54662,-21.31281]},"properties":{"n":"Aire de jeux du Domaine de Vidot"}},{"type":"Feature","geometry":{"type":"Point","coordinates":[55.36694,-21.02058]},"properties":{}},{"type":"Feature","geometry":{"type":"Point","coordinates":[55.64628,-21.19778]},"properties":{}},{"type":"Feature","geometry":{"type":"Point","coordinates":[55.48774,-21.11378]},"properties":{}},{"type":"Feature","geometry":{"type":"Point","coordinates":[55.48136,-21.1228]},"properties":{}},{"type":"Feature","geometry":{"type":"Point","coordinates":[55.48397,-21.32051]},"properties":{"n":"Kiosques pôle élevage"}},{"type":"Feature","geometry":{"type":"Point","coordinates":[55.36645,-21.05972]},"properties":{"n":"La Croisée"}},{"type":"Feature","geometry":{"type":"Point","coordinates":[55.36638,-21.06]},"properties":{"n":"La Croisée"}},{"type":"Feature","geometry":{"type":"Point","coordinates":[55.4305,-21.19839]},"properties":{}},{"type":"Feature","geometry":{"type":"Point","coordinates":[55.43144,-21.19899]},"properties":{}},{"type":"Feature","geometry":{"type":"Point","coordinates":[55.42953,-21.19845]},"properties":{}},{"type":"Feature","geometry":{"type":"Point","coordinates":[55.39959,-21.21187]},"properties":{"n":"Les Platanes"}},{"type":"Feature","geometry":{"type":"Point","coordinates":[55.33332,-21.27426]},"properties":{}},{"type":"Feature","geometry":{"type":"Point","coordinates":[55.45245,-21.05561]},"properties":{}},{"type":"Feature","geometry":{"type":"Point","coordinates":[55.45724,-21.04493]},"properties":{}},{"type":"Feature","geometry":{"type":"Point","coordinates":[55.47367,-21.12663]},"properties":{"n":"Plateau des Chênes"}},{"type":"Feature","geometry":{"type":"Point","coordinates":[55.49306,-20.8857]},"properties":{"n":"Parc Tamarins"}},{"type":"Feature","geometry":{"type":"Point","coordinates":[55.42597,-20.90442]},"properties":{"n":"Parc de Loisirs du Colorado"}},{"type":"Feature","geometry":{"type":"Point","coordinates":[55.43666,-20.95228]},"properties":{"n":"Mamode Camp"}},{"type":"Feature","geometry":{"type":"Point","coordinates":[55.4385,-20.9478]},"properties":{"n":"Laverdure"}},{"type":"Feature","geometry":{"type":"Point","coordinates":[55.43459,-20.91599]},"properties":{"n":"Zone de Loisirs du Brûlé"}},{"type":"Feature","geometry":{"type":"Point","coordinates":[55.39107,-21.04503]},"properties":{}},{"type":"Feature","geometry":{"type":"Point","coordinates":[55.46554,-20.92309]},"properties":{"n":"Saint-François"}},{"type":"Feature","geometry":{"type":"Point","coordinates":[55.70008,-21.0063]},"properties":{"n":"Berges de la Rivière des Roches"}},{"type":"Feature","geometry":{"type":"Point","coordinates":[55.63215,-21.07612]},"properties":{}},{"type":"Feature","geometry":{"type":"Point","coordinates":[55.80655,-21.13378]},"properties":{"n":"La Cayenne"}},{"type":"Feature","geometry":{"type":"Point","coordinates":[55.74874,-21.12493]},"properties":{"n":"Pont Suspendu"}},{"type":"Feature","geometry":{"type":"Point","coordinates":[55.82651,-21.16204]},"properties":{}},{"type":"Feature","geometry":{"type":"Point","coordinates":[55.52602,-21.06777]},"properties":{}},{"type":"Feature","geometry":{"type":"Point","coordinates":[55.62795,-21.16222]},"properties":{"n":"Le Kiosque"}},{"type":"Feature","geometry":{"type":"Point","coordinates":[55.59407,-21.14806]},"properties":{"n":"Forêt de la Petite Plaine"}},{"type":"Feature","geometry":{"type":"Point","coordinates":[55.56955,-21.12954]},"properties":{}},{"type":"Feature","geometry":{"type":"Point","coordinates":[55.57954,-21.17796]},"properties":{"n":"Pont de Trente"}},{"type":"Feature","geometry":{"type":"Point","coordinates":[55.60602,-21.20333]},"properties":{}},{"type":"Feature","geometry":{"type":"Point","coordinates":[55.55194,-21.23296]},"properties":{}},{"type":"Feature","geometry":{"type":"Point","coordinates":[55.62107,-21.20102]},"properties":{}},{"type":"Feature","geometry":{"type":"Point","coordinates":[55.63503,-21.19143]},"properties":{}},{"type":"Feature","geometry":{"type":"Point","coordinates":[55.73975,-21.3554]},"properties":{}},{"type":"Feature","geometry":{"type":"Point","coordinates":[55.71171,-21.37447]},"properties":{"n":"Cap Méchant"}},{"type":"Feature","geometry":{"type":"Point","coordinates":[55.73242,-21.36882]},"properties":{"n":"Puits des Anglais"}},{"type":"Feature","geometry":{"type":"Point","coordinates":[55.75504,-21.3633]},"properties":{}},{"type":"Feature","geometry":{"type":"Point","coordinates":[55.64913,-21.37579]},"properties":{"n":"Langevin"}},{"type":"Feature","geometry":{"type":"Point","coordinates":[55.67687,-21.37788]},"properties":{"n":"La Marine"}},{"type":"Feature","geometry":{"type":"Point","coordinates":[55.51583,-21.35735]},"properties":{}},{"type":"Feature","geometry":{"type":"Point","coordinates":[55.54797,-21.3682]},"properties":{"n":"Grande Anse"}},{"type":"Feature","geometry":{"type":"Point","coordinates":[55.58598,-21.32637]},"properties":{"n":"Domaine du Relais"}},{"type":"Feature","geometry":{"type":"Point","coordinates":[55.45857,-21.33946]},"properties":{}},{"type":"Feature","geometry":{"type":"Point","coordinates":[55.46704,-21.27727]},"properties":{}},{"type":"Feature","geometry":{"type":"Point","coordinates":[55.4542,-21.28708]},"properties":{"n":"Saint-Étienne"}},{"type":"Feature","geometry":{"type":"Point","coordinates":[55.41308,-21.2237]},"properties":{}},{"type":"Feature","geometry":{"type":"Point","coordinates":[55.47586,-21.21858]},"properties":{"n":"Le Bras Long"}},{"type":"Feature","geometry":{"type":"Point","coordinates":[55.39275,-21.29246]},"properties":{"n":"Étang du Gol"}},{"type":"Feature","geometry":{"type":"Point","coordinates":[55.40646,-21.20768]},"properties":{"n":"La Pépinière"}},{"type":"Feature","geometry":{"type":"Point","coordinates":[55.34187,-21.26059]},"properties":{}},{"type":"Feature","geometry":{"type":"Point","coordinates":[55.2871,-21.17936]},"properties":{"n":"Espace de loisirs du Four à Chaux"}},{"type":"Feature","geometry":{"type":"Point","coordinates":[55.28611,-21.16565]},"properties":{}},{"type":"Feature","geometry":{"type":"Point","coordinates":[55.28916,-21.16379]},"properties":{"n":"Batterie des Sans-culottes"}},{"type":"Feature","geometry":{"type":"Point","coordinates":[55.36274,-21.10756]},"properties":{}},{"type":"Feature","geometry":{"type":"Point","coordinates":[55.35977,-21.08242]},"properties":{"n":"Maison Laclos"}},{"type":"Feature","geometry":{"type":"Point","coordinates":[55.33993,-21.12063]},"properties":{}},{"type":"Feature","geometry":{"type":"Point","coordinates":[55.35389,-21.1163]},"properties":{}},{"type":"Feature","geometry":{"type":"Point","coordinates":[55.37544,-21.06164]},"properties":{"n":"Aire d'Accueil de la Messe"}},{"type":"Feature","geometry":{"type":"Point","coordinates":[55.37865,-21.07297]},"properties":{}},{"type":"Feature","geometry":{"type":"Point","coordinates":[55.37226,-21.05887]},"properties":{}},{"type":"Feature","geometry":{"type":"Point","coordinates":[55.68266,-21.03953]},"properties":{"n":"Bethléem"}},{"type":"Feature","geometry":{"type":"Point","coordinates":[55.35885,-21.17943]},"properties":{}},{"type":"Feature","geometry":{"type":"Point","coordinates":[55.33922,-21.25301]},"properties":{}},{"type":"Feature","geometry":{"type":"Point","coordinates":[55.45946,-21.2347]},"properties":{"n":"Plateau Raisin"}},{"type":"Feature","geometry":{"type":"Point","coordinates":[55.547,-21.31259]},"properties":{"n":"Domaine de Vidot","op":"Ville de Saint-Pierre"}},{"type":"Feature","geometry":{"type":"Point","coordinates":[55.4853,-21.13685]},"properties":{"n":"Puy Maillot"}},{"type":"Feature","geometry":{"type":"Point","coordinates":[55.68443,-21.07791]},"properties":{"n":"Forêt de Ravenales"}},{"type":"Feature","geometry":{"type":"Point","coordinates":[55.60133,-21.26422]},"properties":{}},{"type":"Feature","geometry":{"type":"Point","coordinates":[55.39129,-20.98235]},"properties":{}},{"type":"Feature","geometry":{"type":"Point","coordinates":[55.6318,-21.07692]},"properties":{}},{"type":"Feature","geometry":{"type":"Point","coordinates":[55.63214,-21.07664]},"properties":{}},{"type":"Feature","geometry":{"type":"Point","coordinates":[55.48366,-20.90246]},"properties":{}},{"type":"Feature","geometry":{"type":"Point","coordinates":[55.48367,-20.90298]},"properties":{}},{"type":"Feature","geometry":{"type":"Point","coordinates":[55.52538,-21.05089]},"properties":{}},{"type":"Feature","geometry":{"type":"Point","coordinates":[55.64755,-21.36676]},"properties":{}},{"type":"Feature","geometry":{"type":"Point","coordinates":[55.64788,-21.3678]},"properties":{}},{"type":"Feature","geometry":{"type":"Point","coordinates":[55.64656,-21.35872]},"properties":{}},{"type":"Feature","geometry":{"type":"Point","coordinates":[55.64635,-21.35973]},"properties":{}},{"type":"Feature","geometry":{"type":"Point","coordinates":[55.64756,-21.36435]},"properties":{}},{"type":"Feature","geometry":{"type":"Point","coordinates":[55.64749,-21.36621]},"properties":{}},{"type":"Feature","geometry":{"type":"Point","coordinates":[55.6486,-21.36866]},"properties":{}},{"type":"Feature","geometry":{"type":"Point","coordinates":[55.71062,-21.37483]},"properties":{}},{"type":"Feature","geometry":{"type":"Point","coordinates":[55.4106,-21.18559]},"properties":{}},{"type":"Feature","geometry":{"type":"Point","coordinates":[55.42885,-21.18658]},"properties":{}},{"type":"Feature","geometry":{"type":"Point","coordinates":[55.3541,-21.20429]},"properties":{}},{"type":"Feature","geometry":{"type":"Point","coordinates":[55.82463,-21.19012]},"properties":{}},{"type":"Feature","geometry":{"type":"Point","coordinates":[55.26687,-21.0707]},"properties":{}},{"type":"Feature","geometry":{"type":"Point","coordinates":[55.44649,-21.1301]},"properties":{}},{"type":"Feature","geometry":{"type":"Point","coordinates":[55.44654,-21.12996]},"properties":{}},{"type":"Feature","geometry":{"type":"Point","coordinates":[55.49393,-21.0344]},"properties":{}},{"type":"Feature","geometry":{"type":"Point","coordinates":[55.46754,-21.12961]},"properties":{}},{"type":"Feature","geometry":{"type":"Point","coordinates":[55.48193,-21.12752]},"properties":{}},{"type":"Feature","geometry":{"type":"Point","coordinates":[55.36098,-21.19242]},"properties":{}},{"type":"Feature","geometry":{"type":"Point","coordinates":[55.47258,-21.12115]},"properties":{}},{"type":"Feature","geometry":{"type":"Point","coordinates":[55.47282,-21.12252]},"properties":{}},{"type":"Feature","geometry":{"type":"Point","coordinates":[55.50731,-21.14141]},"properties":{}},{"type":"Feature","geometry":{"type":"Point","coordinates":[55.43169,-21.18526]},"properties":{}},{"type":"Feature","geometry":{"type":"Point","coordinates":[55.60756,-21.20057]},"properties":{}},{"type":"Feature","geometry":{"type":"Point","coordinates":[55.62263,-21.20393]},"properties":{}},{"type":"Feature","geometry":{"type":"Point","coordinates":[55.48474,-21.16821]},"properties":{}},{"type":"Feature","geometry":{"type":"Point","coordinates":[55.42826,-21.02659]},"properties":{}},{"type":"Feature","geometry":{"type":"Point","coordinates":[55.56537,-20.89743]},"properties":{}},{"type":"Feature","geometry":{"type":"Point","coordinates":[55.54733,-20.89557]},"properties":{}},{"type":"Feature","geometry":{"type":"Point","coordinates":[55.49564,-21.1313]},"properties":{"n":"Aire d'accueil de la Mare à Joseph"}},{"type":"Feature","geometry":{"type":"Point","coordinates":[55.4949,-21.12947]},"properties":{}},{"type":"Feature","geometry":{"type":"Point","coordinates":[55.61325,-21.21349]},"properties":{}},{"type":"Feature","geometry":{"type":"Point","coordinates":[55.61867,-21.20421]},"properties":{}},{"type":"Feature","geometry":{"type":"Point","coordinates":[55.58818,-21.24331]},"properties":{}},{"type":"Feature","geometry":{"type":"Point","coordinates":[55.58626,-21.2411]},"properties":{}},{"type":"Feature","geometry":{"type":"Point","coordinates":[55.74641,-21.12248]},"properties":{}},{"type":"Feature","geometry":{"type":"Point","coordinates":[55.74658,-21.12204]},"properties":{}},{"type":"Feature","geometry":{"type":"Point","coordinates":[55.28252,-20.98546]},"properties":{}},{"type":"Feature","geometry":{"type":"Point","coordinates":[55.283,-20.98528]},"properties":{}},{"type":"Feature","geometry":{"type":"Point","coordinates":[55.28304,-20.98511]},"properties":{}},{"type":"Feature","geometry":{"type":"Point","coordinates":[55.43076,-21.18648]},"properties":{}},{"type":"Feature","geometry":{"type":"Point","coordinates":[55.4306,-21.18669]},"properties":{}},{"type":"Feature","geometry":{"type":"Point","coordinates":[55.43122,-21.18646]},"properties":{}},{"type":"Feature","geometry":{"type":"Point","coordinates":[55.25938,-21.01613]},"properties":{}},{"type":"Feature","geometry":{"type":"Point","coordinates":[55.2903,-21.1926]},"properties":{}},{"type":"Feature","geometry":{"type":"Point","coordinates":[55.42613,-21.20221]},"properties":{}},{"type":"Feature","geometry":{"type":"Point","coordinates":[55.47625,-21.12458]},"properties":{}},{"type":"Feature","geometry":{"type":"Point","coordinates":[55.66197,-20.92639]},"properties":{"n":"Parc de Loisirs du Colosse"}},{"type":"Feature","geometry":{"type":"Point","coordinates":[55.35521,-21.20603]},"properties":{}},{"type":"Feature","geometry":{"type":"Point","coordinates":[55.35549,-21.20597]},"properties":{}},{"type":"Feature","geometry":{"type":"Point","coordinates":[55.35573,-21.2057]},"properties":{}},{"type":"Feature","geometry":{"type":"Point","coordinates":[55.69963,-21.00691]},"properties":{}},{"type":"Feature","geometry":{"type":"Point","coordinates":[55.53574,-21.19074]},"properties":{}},{"type":"Feature","geometry":{"type":"Point","coordinates":[55.53602,-21.19068]},"properties":{}},{"type":"Feature","geometry":{"type":"Point","coordinates":[55.53631,-21.19063]},"properties":{}},{"type":"Feature","geometry":{"type":"Point","coordinates":[55.53626,-21.19083]},"properties":{}},{"type":"Feature","geometry":{"type":"Point","coordinates":[55.53664,-21.19084]},"properties":{}},{"type":"Feature","geometry":{"type":"Point","coordinates":[55.53589,-21.19084]},"properties":{}},{"type":"Feature","geometry":{"type":"Point","coordinates":[55.53651,-21.19101]},"properties":{}},{"type":"Feature","geometry":{"type":"Point","coordinates":[55.5363,-21.1911]},"properties":{}},{"type":"Feature","geometry":{"type":"Point","coordinates":[55.35955,-21.21053]},"properties":{}},{"type":"Feature","geometry":{"type":"Point","coordinates":[55.35546,-21.20575]},"properties":{"n":"Le Tévelave"}},{"type":"Feature","geometry":{"type":"Point","coordinates":[55.39951,-21.21156]},"properties":{}},{"type":"Feature","geometry":{"type":"Point","coordinates":[55.53614,-21.19088]},"properties":{"n":"Les Jardins du Belvédère de Bois Court"}},{"type":"Feature","geometry":{"type":"Point","coordinates":[55.62716,-21.02679]},"properties":{"n":"L'Éden"}},{"type":"Feature","geometry":{"type":"Point","coordinates":[55.58593,-21.17228]},"properties":{}},{"type":"Feature","geometry":{"type":"Point","coordinates":[55.64854,-21.37593]},"properties":{"n":"Aire de Pique-nique Langevin"}},{"type":"Feature","geometry":{"type":"Point","coordinates":[55.58827,-21.37279]},"properties":{"n":"Aire de Pique-nique de Manapany"}},{"type":"Feature","geometry":{"type":"Point","coordinates":[55.61669,-21.20828]},"properties":{}},{"type":"Feature","geometry":{"type":"Point","coordinates":[55.62097,-21.2013]},"properties":{"n":"Aire de pique-nique du Plateau Nez de Boeuf"}},{"type":"Feature","geometry":{"type":"Point","coordinates":[55.51992,-21.35836]},"properties":{"n":"La Source"}},{"type":"Feature","geometry":{"type":"Point","coordinates":[55.28903,-21.20472]},"properties":{"n":"Aire de Pique-nique Savane de la Pointe au Sel"}},{"type":"Feature","geometry":{"type":"Point","coordinates":[55.29337,-21.20252]},"properties":{"n":"Aire de Pique-nique de Stella"}},{"type":"Feature","geometry":{"type":"Point","coordinates":[55.62151,-21.13247]},"properties":{"n":"Bassin Cadet"}},{"type":"Feature","geometry":{"type":"Point","coordinates":[55.7,-21.00122]},"properties":{"n":"Rivière des Roches"}},{"type":"Feature","geometry":{"type":"Point","coordinates":[55.70006,-21.01072]},"properties":{"n":"Rivière des Roches"}},{"type":"Feature","geometry":{"type":"Point","coordinates":[55.69821,-21.00592]},"properties":{}},{"type":"Feature","geometry":{"type":"Point","coordinates":[55.63873,-20.98022]},"properties":{"n":"Parc Rivière du Mât"}},{"type":"Feature","geometry":{"type":"Point","coordinates":[55.60997,-20.90886]},"properties":{"n":"Parc du Bocage"}},{"type":"Feature","geometry":{"type":"Point","coordinates":[55.74846,-21.08279]},"properties":{"n":"Bassin Bleu"}},{"type":"Feature","geometry":{"type":"Point","coordinates":[55.6883,-21.1089]},"properties":{"n":"Forêt Sainte-Marguerite"}},{"type":"Feature","geometry":{"type":"Point","coordinates":[55.65352,-21.09649]},"properties":{"n":"Le Grand Étang"}},{"type":"Feature","geometry":{"type":"Point","coordinates":[55.48193,-21.18828]},"properties":{"n":"Kiosque"}},{"type":"Feature","geometry":{"type":"Point","coordinates":[55.70006,-21.00362]},"properties":{}},{"type":"Feature","geometry":{"type":"Point","coordinates":[55.69981,-21.00392]},"properties":{}},{"type":"Feature","geometry":{"type":"Point","coordinates":[55.70007,-21.00388]},"properties":{}},{"type":"Feature","geometry":{"type":"Point","coordinates":[55.25944,-21.05902]},"properties":{}},{"type":"Feature","geometry":{"type":"Point","coordinates":[55.23508,-21.09377]},"properties":{}},{"type":"Feature","geometry":{"type":"Point","coordinates":[55.34377,-20.93053]},"properties":{}},{"type":"Feature","geometry":{"type":"Point","coordinates":[55.80382,-21.33999]},"properties":{"n":"Site du Puits Arabe"}},{"type":"Feature","geometry":{"type":"Point","coordinates":[55.69984,-21.00744]},"properties":{}},{"type":"Feature","geometry":{"type":"Point","coordinates":[55.69938,-21.00711]},"properties":{}},{"type":"Feature","geometry":{"type":"Point","coordinates":[55.69954,-21.00705]},"properties":{}},{"type":"Feature","geometry":{"type":"Point","coordinates":[55.50678,-20.92908]},"properties":{"n":"Îlet Quinquina"}},{"type":"Feature","geometry":{"type":"Point","coordinates":[55.52453,-20.97227]},"properties":{"n":"Piton Fougère"}},{"type":"Feature","geometry":{"type":"Point","coordinates":[55.40624,-20.94082]},"properties":{"n":"Plaine d'Affouches"}},{"type":"Feature","geometry":{"type":"Point","coordinates":[55.54005,-20.89539]},"properties":{"n":"Parc de Bois Madame"}},{"type":"Feature","geometry":{"type":"Point","coordinates":[55.61274,-21.21296]},"properties":{}},{"type":"Feature","geometry":{"type":"Point","coordinates":[55.57608,-21.20435]},"properties":{"n":"Le Bois du Bourg Murat"}}]}