{"type":"FeatureCollection","features":[{"type":"Feature","geometry":{"type":"Point","coordinates":[55.49565,-21.34302]},"properties":{"op":"CHU de la Réunion","wc":"yes"}},{"type":"Feature","geometry":{"type":"Point","coordinates":[55.23058,-21.07691]},"properties":{}},{"type":"Feature","geometry":{"type":"Point","coordinates":[55.6196,-21.37929]},"properties":{"fee":"no","wc":"yes"}},{"type":"Feature","geometry":{"type":"Point","coordinates":[55.28746,-21.16583]},"properties":{"fee":"no","wc":"yes"}},{"type":"Feature","geometry":{"type":"Point","coordinates":[55.28657,-21.17023]},"properties":{"fee":"no","wc":"yes"}},{"type":"Feature","geometry":{"type":"Point","coordinates":[55.28641,-21.16821]},"properties":{"fee":"no","wc":"yes"}},{"type":"Feature","geometry":{"type":"Point","coordinates":[55.47382,-21.3442]},"properties":{"fee":"yes","wc":"yes"}},{"type":"Feature","geometry":{"type":"Point","coordinates":[55.22631,-21.02766]},"properties":{"fee":"no","wc":"yes"}},{"type":"Feature","geometry":{"type":"Point","coordinates":[55.45691,-20.88387]},"properties":{}},{"type":"Feature","geometry":{"type":"Point","coordinates":[55.50751,-21.27294]},"properties":{}},{"type":"Feature","geometry":{"type":"Point","coordinates":[55.47798,-21.34109]},"properties":{"fee":"yes"}},{"type":"Feature","geometry":{"type":"Point","coordinates":[55.57769,-21.20454]},"properties":{}},{"type":"Feature","geometry":{"type":"Point","coordinates":[55.50077,-20.89099]},"properties":{}},{"type":"Feature","geometry":{"type":"Point","coordinates":[55.30997,-21.13476]},"properties":{}},{"type":"Feature","geometry":{"type":"Point","coordinates":[55.45007,-21.11292]},"properties":{"fee":"no","wc":"no"}},{"type":"Feature","geometry":{"type":"Point","coordinates":[55.47679,-21.13313]},"properties":{"fee":"no"}},{"type":"Feature","geometry":{"type":"Point","coordinates":[55.51081,-21.06207]},"properties":{}},{"type":"Feature","geometry":{"type":"Point","coordinates":[55.22279,-21.07334]},"properties":{"fee":"no"}},{"type":"Feature","geometry":{"type":"Point","coordinates":[55.47196,-21.3442]},"properties":{"fee":"yes"}},{"type":"Feature","geometry":{"type":"Point","coordinates":[55.38533,-21.06937]},"properties":{"fee":"no"}},{"type":"Feature","geometry":{"type":"Point","coordinates":[55.29347,-21.13638]},"properties":{}},{"type":"Feature","geometry":{"type":"Point","coordinates":[55.46286,-21.33731]},"properties":{}},{"type":"Feature","geometry":{"type":"Point","coordinates":[55.49409,-21.30289]},"properties":{}},{"type":"Feature","geometry":{"type":"Point","coordinates":[55.40819,-21.28841]},"properties":{"op":"Toilettes public"}},{"type":"Feature","geometry":{"type":"Point","coordinates":[55.44694,-20.87471]},"properties":{}},{"type":"Feature","geometry":{"type":"Point","coordinates":[55.52149,-21.35807]},"properties":{}},{"type":"Feature","geometry":{"type":"Point","coordinates":[55.52833,-21.36175]},"properties":{}},{"type":"Feature","geometry":{"type":"Point","coordinates":[55.52685,-21.36139]},"properties":{}},{"type":"Feature","geometry":{"type":"Point","coordinates":[55.27113,-21.00728]},"properties":{}},{"type":"Feature","geometry":{"type":"Point","coordinates":[55.27156,-21.00726]},"properties":{"fee":"no"}},{"type":"Feature","geometry":{"type":"Point","coordinates":[55.2733,-21.00518]},"properties":{"fee":"no"}},{"type":"Feature","geometry":{"type":"Point","coordinates":[55.46643,-21.34259]},"properties":{}},{"type":"Feature","geometry":{"type":"Point","coordinates":[55.4673,-21.34338]},"properties":{}},{"type":"Feature","geometry":{"type":"Point","coordinates":[55.45778,-21.33788]},"properties":{}},{"type":"Feature","geometry":{"type":"Point","coordinates":[55.28642,-21.16996]},"properties":{"fee":"no","wc":"yes"}},{"type":"Feature","geometry":{"type":"Point","coordinates":[55.47237,-21.13271]},"properties":{"fee":"no","wc":"yes"}},{"type":"Feature","geometry":{"type":"Point","coordinates":[55.29296,-20.94494]},"properties":{}},{"type":"Feature","geometry":{"type":"Point","coordinates":[55.22809,-21.086]},"properties":{"fee":"no","wc":"yes"}},{"type":"Feature","geometry":{"type":"Point","coordinates":[55.22153,-21.07789]},"properties":{"fee":"no","wc":"yes"}},{"type":"Feature","geometry":{"type":"Point","coordinates":[55.22117,-21.07665]},"properties":{"fee":"no","wc":"yes"}},{"type":"Feature","geometry":{"type":"Point","coordinates":[55.73207,-21.36951]},"properties":{"fee":"no","wc":"yes"}},{"type":"Feature","geometry":{"type":"Point","coordinates":[55.46934,-20.88498]},"properties":{}},{"type":"Feature","geometry":{"type":"Point","coordinates":[55.24552,-21.10193]},"properties":{"fee":"no","wc":"yes"}},{"type":"Feature","geometry":{"type":"Point","coordinates":[55.26017,-21.01603]},"properties":{"fee":"no"}},{"type":"Feature","geometry":{"type":"Point","coordinates":[55.63157,-21.0763]},"properties":{}},{"type":"Feature","geometry":{"type":"Point","coordinates":[55.22106,-21.07078]},"properties":{"fee":"no","wc":"yes"}},{"type":"Feature","geometry":{"type":"Point","coordinates":[55.47312,-21.34081]},"properties":{"fee":"yes"}},{"type":"Feature","geometry":{"type":"Point","coordinates":[55.47707,-21.34172]},"properties":{"fee":"yes"}},{"type":"Feature","geometry":{"type":"Point","coordinates":[55.68488,-21.22561]},"properties":{"fee":"no"}},{"type":"Feature","geometry":{"type":"Point","coordinates":[55.28699,-21.16589]},"properties":{}},{"type":"Feature","geometry":{"type":"Point","coordinates":[55.29033,-21.19236]},"properties":{}},{"type":"Feature","geometry":{"type":"Point","coordinates":[55.28721,-21.18418]},"properties":{}},{"type":"Feature","geometry":{"type":"Point","coordinates":[55.4258,-20.90359]},"properties":{}},{"type":"Feature","geometry":{"type":"Point","coordinates":[55.47096,-21.13487]},"properties":{"fee":"no"}},{"type":"Feature","geometry":{"type":"Point","coordinates":[55.53882,-21.02766]},"properties":{"fee":"no","wc":"yes"}},{"type":"Feature","geometry":{"type":"Point","coordinates":[55.22455,-21.05279]},"properties":{}},{"type":"Feature","geometry":{"type":"Point","coordinates":[55.48335,-20.90072]},"properties":{}},{"type":"Feature","geometry":{"type":"Point","coordinates":[55.61482,-21.37883]},"properties":{"fee":"no","wc":"no"}},{"type":"Feature","geometry":{"type":"Point","coordinates":[55.61508,-21.37907]},"properties":{"fee":"no","wc":"yes"}},{"type":"Feature","geometry":{"type":"Point","coordinates":[55.61516,-21.37895]},"properties":{"fee":"no","wc":"no"}},{"type":"Feature","geometry":{"type":"Point","coordinates":[55.45121,-20.88766]},"properties":{"fee":"no","wc":"yes"}},{"type":"Feature","geometry":{"type":"Point","coordinates":[55.69966,-21.00374]},"properties":{}},{"type":"Feature","geometry":{"type":"Point","coordinates":[55.82755,-21.18544]},"properties":{"fee":"no","wc":"yes"}},{"type":"Feature","geometry":{"type":"Point","coordinates":[55.22594,-21.05433]},"properties":{}},{"type":"Feature","geometry":{"type":"Point","coordinates":[55.22582,-21.05291]},"properties":{}},{"type":"Feature","geometry":{"type":"Point","coordinates":[55.51266,-20.89189]},"properties":{"fee":"no","wc":"yes"}},{"type":"Feature","geometry":{"type":"Point","coordinates":[55.27695,-21.0016]},"properties":{"fee":"no","wc":"yes"}},{"type":"Feature","geometry":{"type":"Point","coordinates":[55.34196,-21.04787]},"properties":{}},{"type":"Feature","geometry":{"type":"Point","coordinates":[55.54065,-20.89521]},"properties":{}},{"type":"Feature","geometry":{"type":"Point","coordinates":[55.6015,-21.3718]},"properties":{}},{"type":"Feature","geometry":{"type":"Point","coordinates":[55.32062,-20.93457]},"properties":{}},{"type":"Feature","geometry":{"type":"Point","coordinates":[55.47076,-21.32601]},"properties":{}},{"type":"Feature","geometry":{"type":"Point","coordinates":[55.26699,-21.04834]},"properties":{}},{"type":"Feature","geometry":{"type":"Point","coordinates":[55.42521,-21.01916]},"properties":{}},{"type":"Feature","geometry":{"type":"Point","coordinates":[55.51787,-21.29349]},"properties":{}},{"type":"Feature","geometry":{"type":"Point","coordinates":[55.51888,-21.28967]},"properties":{}},{"type":"Feature","geometry":{"type":"Point","coordinates":[55.48537,-20.90095]},"properties":{}},{"type":"Feature","geometry":{"type":"Point","coordinates":[55.4843,-20.90123]},"properties":{}},{"type":"Feature","geometry":{"type":"Point","coordinates":[55.48526,-20.90133]},"properties":{}},{"type":"Feature","geometry":{"type":"Point","coordinates":[55.48443,-20.90103]},"properties":{}},{"type":"Feature","geometry":{"type":"Point","coordinates":[55.48344,-20.9014]},"properties":{"fee":"no"}},{"type":"Feature","geometry":{"type":"Point","coordinates":[55.48366,-20.90144]},"properties":{"fee":"no"}},{"type":"Feature","geometry":{"type":"Point","coordinates":[55.48388,-20.90148]},"properties":{"fee":"no"}},{"type":"Feature","geometry":{"type":"Point","coordinates":[55.48305,-20.90147]},"properties":{}},{"type":"Feature","geometry":{"type":"Point","coordinates":[55.48422,-20.90258]},"properties":{}},{"type":"Feature","geometry":{"type":"Point","coordinates":[55.48537,-20.90134]},"properties":{"wc":"yes"}},{"type":"Feature","geometry":{"type":"Point","coordinates":[55.45798,-21.29865]},"properties":{"fee":"yes","wc":"yes"}},{"type":"Feature","geometry":{"type":"Point","coordinates":[55.28198,-20.98951]},"properties":{}},{"type":"Feature","geometry":{"type":"Point","coordinates":[55.51009,-20.89364]},"properties":{"fee":"no","wc":"yes"}},{"type":"Feature","geometry":{"type":"Point","coordinates":[55.28625,-21.16665]},"properties":{}},{"type":"Feature","geometry":{"type":"Point","coordinates":[55.2864,-21.16918]},"properties":{}},{"type":"Feature","geometry":{"type":"Point","coordinates":[55.28788,-21.16955]},"properties":{}},{"type":"Feature","geometry":{"type":"Point","coordinates":[55.64401,-21.38716]},"properties":{"fee":"no"}},{"type":"Feature","geometry":{"type":"Point","coordinates":[55.54849,-21.36884]},"properties":{"fee":"no","wc":"yes"}},{"type":"Feature","geometry":{"type":"Point","coordinates":[55.48157,-21.34758]},"properties":{"fee":"yes","wc":"yes"}},{"type":"Feature","geometry":{"type":"Point","coordinates":[55.60779,-20.90477]},"properties":{}},{"type":"Feature","geometry":{"type":"Point","coordinates":[55.2208,-21.06963]},"properties":{"fee":"no","wc":"limited"}},{"type":"Feature","geometry":{"type":"Point","coordinates":[55.22142,-21.06768]},"properties":{"fee":"no","wc":"yes"}},{"type":"Feature","geometry":{"type":"Point","coordinates":[55.22583,-21.08339]},"properties":{}},{"type":"Feature","geometry":{"type":"Point","coordinates":[55.28715,-21.17748]},"properties":{"fee":"no","wc":"yes"}},{"type":"Feature","geometry":{"type":"Point","coordinates":[55.294,-20.98787]},"properties":{}},{"type":"Feature","geometry":{"type":"Point","coordinates":[55.46069,-20.88558]},"properties":{"fee":"no","wc":"designated"}},{"type":"Feature","geometry":{"type":"Point","coordinates":[55.47687,-21.3437]},"properties":{"fee":"yes"}},{"type":"Feature","geometry":{"type":"Point","coordinates":[55.82333,-21.16124]},"properties":{"fee":"no","wc":"yes"}},{"type":"Feature","geometry":{"type":"Point","coordinates":[55.45731,-20.8779]},"properties":{"fee":"no","wc":"yes"}},{"type":"Feature","geometry":{"type":"Point","coordinates":[55.40129,-20.90752]},"properties":{}},{"type":"Feature","geometry":{"type":"Point","coordinates":[55.38629,-20.9891]},"properties":{"fee":"no","wc":"limited"}},{"type":"Feature","geometry":{"type":"Point","coordinates":[55.29887,-20.98913]},"properties":{"fee":"no","wc":"limited"}},{"type":"Feature","geometry":{"type":"Point","coordinates":[55.3006,-20.92947]},"properties":{}},{"type":"Feature","geometry":{"type":"Point","coordinates":[55.22598,-21.05236]},"properties":{}},{"type":"Feature","geometry":{"type":"Point","coordinates":[55.30876,-20.95612]},"properties":{}},{"type":"Feature","geometry":{"type":"Point","coordinates":[55.55218,-21.23297]},"properties":{}},{"type":"Feature","geometry":{"type":"Point","coordinates":[55.55362,-21.22014]},"properties":{}},{"type":"Feature","geometry":{"type":"Point","coordinates":[55.62354,-21.13708]},"properties":{}},{"type":"Feature","geometry":{"type":"Point","coordinates":[55.61759,-21.37752]},"properties":{"wc":"yes"}},{"type":"Feature","geometry":{"type":"Point","coordinates":[55.61889,-21.37954]},"properties":{}},{"type":"Feature","geometry":{"type":"Point","coordinates":[55.61263,-21.37826]},"properties":{}},{"type":"Feature","geometry":{"type":"Point","coordinates":[55.47479,-21.34046]},"properties":{"wc":"yes"}},{"type":"Feature","geometry":{"type":"Point","coordinates":[55.62091,-21.37871]},"properties":{}},{"type":"Feature","geometry":{"type":"Point","coordinates":[55.62392,-21.13657]},"properties":{}},{"type":"Feature","geometry":{"type":"Point","coordinates":[55.28867,-21.16503]},"properties":{}},{"type":"Feature","geometry":{"type":"Point","coordinates":[55.28709,-21.16475]},"properties":{"fee":"no"}},{"type":"Feature","geometry":{"type":"Point","coordinates":[55.28723,-21.17863]},"properties":{}},{"type":"Feature","geometry":{"type":"Point","coordinates":[55.56541,-21.35366]},"properties":{}},{"type":"Feature","geometry":{"type":"Point","coordinates":[55.56847,-21.36763]},"properties":{}},{"type":"Feature","geometry":{"type":"Point","coordinates":[55.62649,-21.37334]},"properties":{}},{"type":"Feature","geometry":{"type":"Point","coordinates":[55.26115,-21.01474]},"properties":{}},{"type":"Feature","geometry":{"type":"Point","coordinates":[55.4934,-21.34218]},"properties":{"wc":"yes"}},{"type":"Feature","geometry":{"type":"Point","coordinates":[55.29848,-20.93922]},"properties":{"fee":"no"}},{"type":"Feature","geometry":{"type":"Point","coordinates":[55.49312,-21.34154]},"properties":{}},{"type":"Feature","geometry":{"type":"Point","coordinates":[55.49262,-21.34193]},"properties":{}},{"type":"Feature","geometry":{"type":"Point","coordinates":[55.49292,-21.34164]},"properties":{}},{"type":"Feature","geometry":{"type":"Point","coordinates":[55.49264,-21.34194]},"properties":{}},{"type":"Feature","geometry":{"type":"Point","coordinates":[55.44304,-20.88]},"properties":{}},{"type":"Feature","geometry":{"type":"Point","coordinates":[55.29844,-20.93914]},"properties":{"fee":"no","wc":"yes"}},{"type":"Feature","geometry":{"type":"Point","coordinates":[55.44891,-20.87222]},"properties":{"fee":"no"}},{"type":"Feature","geometry":{"type":"Point","coordinates":[55.45165,-20.87983]},"properties":{"fee":"yes"}},{"type":"Feature","geometry":{"type":"Point","coordinates":[55.47035,-20.89558]},"properties":{}},{"type":"Feature","geometry":{"type":"Point","coordinates":[55.4719,-21.33404]},"properties":{}},{"type":"Feature","geometry":{"type":"Point","coordinates":[55.30544,-20.93005]},"properties":{"fee":"no","wc":"yes"}},{"type":"Feature","geometry":{"type":"Point","coordinates":[55.47674,-21.34381]},"properties":{"fee":"yes"}},{"type":"Feature","geometry":{"type":"Point","coordinates":[55.27469,-21.00979]},"properties":{}},{"type":"Feature","geometry":{"type":"Point","coordinates":[55.56097,-20.89733]},"properties":{}},{"type":"Feature","geometry":{"type":"Point","coordinates":[55.46945,-21.2505]},"properties":{}},{"type":"Feature","geometry":{"type":"Point","coordinates":[55.45604,-21.3352]},"properties":{}},{"type":"Feature","geometry":{"type":"Point","coordinates":[55.39343,-21.04184]},"properties":{}},{"type":"Feature","geometry":{"type":"Point","coordinates":[55.66127,-20.928]},"properties":{}},{"type":"Feature","geometry":{"type":"Point","coordinates":[55.54742,-21.36812]},"properties":{"fee":"no"}},{"type":"Feature","geometry":{"type":"Point","coordinates":[55.49657,-21.25097]},"properties":{}},{"type":"Feature","geometry":{"type":"Point","coordinates":[55.5042,-21.26059]},"properties":{}},{"type":"Feature","geometry":{"type":"Point","coordinates":[55.74865,-21.12481]},"properties":{}},{"type":"Feature","geometry":{"type":"Point","coordinates":[55.4948,-21.25469]},"properties":{}},{"type":"Feature","geometry":{"type":"Point","coordinates":[55.47114,-21.25003]},"properties":{}},{"type":"Feature","geometry":{"type":"Point","coordinates":[55.47673,-21.13311]},"properties":{"fee":"no"}},{"type":"Feature","geometry":{"type":"Point","coordinates":[55.29527,-21.1376]},"properties":{}},{"type":"Feature","geometry":{"type":"Point","coordinates":[55.22089,-21.07324]},"properties":{"n":"Sanitaires Mail de Rodrigues"}},{"type":"Feature","geometry":{"type":"Point","coordinates":[55.63249,-20.92867]},"properties":{"n":"Toilettes"}},{"type":"Feature","geometry":{"type":"Point","coordinates":[55.56964,-20.89361]},"properties":{}},{"type":"Feature","geometry":{"type":"Point","coordinates":[55.53631,-21.06106]},"properties":{}},{"type":"Feature","geometry":{"type":"Point","coordinates":[55.63412,-20.92945]},"properties":{"fee":"no","wc":"yes"}},{"type":"Feature","geometry":{"type":"Point","coordinates":[55.35241,-21.267]},"properties":{"op":"Zoo Parc de la Réunion"}},{"type":"Feature","geometry":{"type":"Point","coordinates":[55.35031,-21.26897]},"properties":{"op":"Zoo Parc de la Réunion"}},{"type":"Feature","geometry":{"type":"Point","coordinates":[55.67677,-20.97638]},"properties":{}},{"type":"Feature","geometry":{"type":"Point","coordinates":[55.74779,-21.08249]},"properties":{"fee":"no","wc":"limited"}},{"type":"Feature","geometry":{"type":"Point","coordinates":[55.70472,-21.0343]},"properties":{}},{"type":"Feature","geometry":{"type":"Point","coordinates":[55.5697,-21.23731]},"properties":{}},{"type":"Feature","geometry":{"type":"Point","coordinates":[55.58825,-21.37294]},"properties":{"fee":"no"}},{"type":"Feature","geometry":{"type":"Point","coordinates":[55.60339,-21.37254]},"properties":{}},{"type":"Feature","geometry":{"type":"Point","coordinates":[55.60362,-21.37294]},"properties":{}},{"type":"Feature","geometry":{"type":"Point","coordinates":[55.64662,-21.38666]},"properties":{}},{"type":"Feature","geometry":{"type":"Point","coordinates":[55.4878,-20.89086]},"properties":{}},{"type":"Feature","geometry":{"type":"Point","coordinates":[55.4957,-20.92749]},"properties":{}},{"type":"Feature","geometry":{"type":"Point","coordinates":[55.49322,-20.92017]},"properties":{}},{"type":"Feature","geometry":{"type":"Point","coordinates":[55.46844,-20.89367]},"properties":{"fee":"no"}},{"type":"Feature","geometry":{"type":"Point","coordinates":[55.47183,-20.89394]},"properties":{}},{"type":"Feature","geometry":{"type":"Point","coordinates":[55.44471,-20.87587]},"properties":{}},{"type":"Feature","geometry":{"type":"Point","coordinates":[55.42378,-20.90841]},"properties":{}},{"type":"Feature","geometry":{"type":"Point","coordinates":[55.45086,-20.88978]},"properties":{}},{"type":"Feature","geometry":{"type":"Point","coordinates":[55.46196,-20.89312]},"properties":{}},{"type":"Feature","geometry":{"type":"Point","coordinates":[55.47934,-20.89081]},"properties":{"fee":"no"}},{"type":"Feature","geometry":{"type":"Point","coordinates":[55.22488,-21.08163]},"properties":{"wc":"yes"}},{"type":"Feature","geometry":{"type":"Point","coordinates":[55.53229,-20.893]},"properties":{}},{"type":"Feature","geometry":{"type":"Point","coordinates":[55.46008,-20.87961]},"properties":{}},{"type":"Feature","geometry":{"type":"Point","coordinates":[55.49313,-20.88603]},"properties":{"wc":"yes"}},{"type":"Feature","geometry":{"type":"Point","coordinates":[55.49236,-20.88621]},"properties":{"wc":"no"}},{"type":"Feature","geometry":{"type":"Point","coordinates":[55.5495,-20.89658]},"properties":{}},{"type":"Feature","geometry":{"type":"Point","coordinates":[55.55484,-20.89683]},"properties":{}},{"type":"Feature","geometry":{"type":"Point","coordinates":[55.47257,-20.88773]},"properties":{"wc":"yes"}},{"type":"Feature","geometry":{"type":"Point","coordinates":[55.82409,-21.16214]},"properties":{"fee":"no"}},{"type":"Feature","geometry":{"type":"Point","coordinates":[55.36615,-21.26651]},"properties":{}},{"type":"Feature","geometry":{"type":"Point","coordinates":[55.45633,-20.87955]},"properties":{}},{"type":"Feature","geometry":{"type":"Point","coordinates":[55.82407,-21.16214]},"properties":{"fee":"no"}},{"type":"Feature","geometry":{"type":"Point","coordinates":[55.49778,-20.89825]},"properties":{"wc":"yes"}},{"type":"Feature","geometry":{"type":"Point","coordinates":[55.43556,-20.92332]},"properties":{}},{"type":"Feature","geometry":{"type":"Point","coordinates":[55.43484,-20.92272]},"properties":{}},{"type":"Feature","geometry":{"type":"Point","coordinates":[55.49994,-20.89164]},"properties":{"wc":"yes"}},{"type":"Feature","geometry":{"type":"Point","coordinates":[55.28917,-21.03693]},"properties":{}},{"type":"Feature","geometry":{"type":"Point","coordinates":[55.41148,-21.26706]},"properties":{}},{"type":"Feature","geometry":{"type":"Point","coordinates":[55.32547,-20.93516]},"properties":{}},{"type":"Feature","geometry":{"type":"Point","coordinates":[55.23646,-21.0957]},"properties":{"fee":"no","wc":"yes"}},{"type":"Feature","geometry":{"type":"Point","coordinates":[55.40694,-21.28956]},"properties":{"fee":"no"}},{"type":"Feature","geometry":{"type":"Point","coordinates":[55.44908,-21.11312]},"properties":{"fee":"no","wc":"no"}},{"type":"Feature","geometry":{"type":"Point","coordinates":[55.45853,-21.33896]},"properties":{"fee":"yes"}},{"type":"Feature","geometry":{"type":"Point","coordinates":[55.49574,-21.2523]},"properties":{}},{"type":"Feature","geometry":{"type":"Point","coordinates":[55.225,-21.05469]},"properties":{"fee":"no","wc":"yes"}},{"type":"Feature","geometry":{"type":"Point","coordinates":[55.62943,-21.29629]},"properties":{}},{"type":"Feature","geometry":{"type":"Point","coordinates":[55.608,-20.9065]},"properties":{"wc":"yes"}},{"type":"Feature","geometry":{"type":"Point","coordinates":[55.47954,-20.90905]},"properties":{"fee":"no","wc":"yes"}},{"type":"Feature","geometry":{"type":"Point","coordinates":[55.47952,-20.90907]},"properties":{"fee":"no","wc":"yes"}},{"type":"Feature","geometry":{"type":"Point","coordinates":[55.45923,-20.8814]},"properties":{"fee":"yes"}},{"type":"Feature","geometry":{"type":"Point","coordinates":[55.47034,-21.24845]},"properties":{}},{"type":"Feature","geometry":{"type":"Point","coordinates":[55.53655,-20.89338]},"properties":{"wc":"yes"}},{"type":"Feature","geometry":{"type":"Point","coordinates":[55.28928,-21.16699]},"properties":{}},{"type":"Feature","geometry":{"type":"Point","coordinates":[55.51866,-20.90005]},"properties":{}},{"type":"Feature","geometry":{"type":"Point","coordinates":[55.51182,-20.89145]},"properties":{}},{"type":"Feature","geometry":{"type":"Point","coordinates":[55.45543,-20.88048]},"properties":{}}]}